{
"type": "FeatureCollection",
"name": "pocos",
"crs": { "type": "name", "properties": { "name": "urn:ogc:def:crs:OGC:1.3:CRS84" } },
"features": [
{ "type": "Feature", "properties": { "wellid": 38, "uwi": "120510032300", "wllLocId": 35, "cmmnWllNm": "1-APS-10B-AP", "latitude": 3.48355, "longitude": -48.71146, "district": "LANDMARK", "project": "NEOGENO_FOZAMAZONAS", "subprj": "ALL_DATA", "owtype": "WellEntire", "OBJECTID": 1 }, "geometry": { "type": "Point", "coordinates": [ -48.711459979145374, 3.483549996145093 ] } },
{ "type": "Feature", "properties": { "wellid": 39, "uwi": "120510032000", "wllLocId": 36, "cmmnWllNm": "1-APS-15-APS", "latitude": 3.744461, "longitude": -49.499989, "district": "LANDMARK", "project": "NEOGENO_FOZAMAZONAS", "subprj": "ALL_DATA", "owtype": "WellEntire", "OBJECTID": 2 }, "geometry": { "type": "Point", "coordinates": [ -49.4999889825244, 3.744461007871092 ] } },
{ "type": "Feature", "properties": { "wellid": 1, "uwi": "120510026700", "wllLocId": 1, "cmmnWllNm": "1-APS-1-AP", "latitude": 2.409504, "longitude": -49.022066, "district": "LANDMARK", "project": "NEOGENO_FOZAMAZONAS", "subprj": "ALL_DATA", "owtype": "WellEntire", "OBJECTID": 3 }, "geometry": { "type": "Point", "coordinates": [ -49.022065992210948, 2.409503995661153 ] } },
{ "type": "Feature", "properties": { "wellid": 2, "uwi": "120510030200", "wllLocId": 2, "cmmnWllNm": "1-APS-11-AP", "latitude": 3.067896, "longitude": -48.998936, "district": "LANDMARK", "project": "NEOGENO_FOZAMAZONAS", "subprj": "ALL_DATA", "owtype": "WellEntire", "OBJECTID": 4 }, "geometry": { "type": "Point", "coordinates": [ -48.998935985828631, 3.067895997495536 ] } },
{ "type": "Feature", "properties": { "wellid": 3, "uwi": "120510030800", "wllLocId": 3, "cmmnWllNm": "1-APS-14-AP", "latitude": 2.706305, "longitude": -48.347632, "district": "LANDMARK", "project": "NEOGENO_FOZAMAZONAS", "subprj": "ALL_DATA", "owtype": "WellEntire", "OBJECTID": 5 }, "geometry": { "type": "Point", "coordinates": [ -48.347631988469217, 2.706304988824196 ] } },
{ "type": "Feature", "properties": { "wellid": 4, "uwi": "120510032700", "wllLocId": 4, "cmmnWllNm": "1-APS-18-AP", "latitude": 3.935081, "longitude": -50.296904, "district": "LANDMARK", "project": "NEOGENO_FOZAMAZONAS", "subprj": "ALL_DATA", "owtype": "WellEntire", "OBJECTID": 6 }, "geometry": { "type": "Point", "coordinates": [ -50.296903990545999, 3.935081016095332 ] } },
{ "type": "Feature", "properties": { "wellid": 5, "uwi": "120510034100", "wllLocId": 5, "cmmnWllNm": "1-APS-20B-AP", "latitude": 3.030793, "longitude": -48.270782, "district": "LANDMARK", "project": "NEOGENO_FOZAMAZONAS", "subprj": "ALL_DATA", "owtype": "WellEntire", "OBJECTID": 7 }, "geometry": { "type": "Point", "coordinates": [ -48.270781983999839, 3.030792988042215 ] } },
{ "type": "Feature", "properties": { "wellid": 6, "uwi": "120510034300", "wllLocId": 6, "cmmnWllNm": "1-APS-22-AP", "latitude": 3.730425, "longitude": -49.189857, "district": "LANDMARK", "project": "NEOGENO_FOZAMAZONAS", "subprj": "ALL_DATA", "owtype": "WellEntire", "OBJECTID": 8 }, "geometry": { "type": "Point", "coordinates": [ -49.189856979623812, 3.730425004328566 ] } },
{ "type": "Feature", "properties": { "wellid": 7, "uwi": "120510034500", "wllLocId": 7, "cmmnWllNm": "1-APS-24-AP", "latitude": 2.553006, "longitude": -49.355423, "district": "LANDMARK", "project": "NEOGENO_FOZAMAZONAS", "subprj": "ALL_DATA", "owtype": "WellEntire", "OBJECTID": 9 }, "geometry": { "type": "Point", "coordinates": [ -49.355422991907297, 2.553005998682127 ] } },
{ "type": "Feature", "properties": { "wellid": 8, "uwi": "120510035500", "wllLocId": 8, "cmmnWllNm": "1-APS-29-AP", "latitude": 4.202874, "longitude": -49.819974, "district": "LANDMARK", "project": "NEOGENO_FOZAMAZONAS", "subprj": "ALL_DATA", "owtype": "WellEntire", "OBJECTID": 10 }, "geometry": { "type": "Point", "coordinates": [ -49.819973982178112, 4.202874016543122 ] } },
{ "type": "Feature", "properties": { "wellid": 9, "uwi": "120510035400", "wllLocId": 9, "cmmnWllNm": "1-APS-30-AP", "latitude": 3.187149, "longitude": -48.788295, "district": "LANDMARK", "project": "NEOGENO_FOZAMAZONAS", "subprj": "ALL_DATA", "owtype": "WellEntire", "OBJECTID": 11 }, "geometry": { "type": "Point", "coordinates": [ -48.788294983465825, 3.187148995587939 ] } },
{ "type": "Feature", "properties": { "wellid": 10, "uwi": "120510036000", "wllLocId": 10, "cmmnWllNm": "1-APS-32-AP", "latitude": 2.828845, "longitude": -48.368492, "district": "LANDMARK", "project": "NEOGENO_FOZAMAZONAS", "subprj": "ALL_DATA", "owtype": "WellEntire", "OBJECTID": 12 }, "geometry": { "type": "Point", "coordinates": [ -48.368491986903152, 2.828844989164434 ] } },
{ "type": "Feature", "properties": { "wellid": 11, "uwi": "120510036100", "wllLocId": 11, "cmmnWllNm": "1-APS-34-AP", "latitude": 3.32491, "longitude": -49.203774, "district": "LANDMARK", "project": "NEOGENO_FOZAMAZONAS", "subprj": "ALL_DATA", "owtype": "WellEntire", "OBJECTID": 13 }, "geometry": { "type": "Point", "coordinates": [ -49.203773984272296, 3.324910001197304 ] } },
{ "type": "Feature", "properties": { "wellid": 12, "uwi": "120510036500", "wllLocId": 12, "cmmnWllNm": "1-APS-36-AP", "latitude": 3.574517, "longitude": -49.538841, "district": "LANDMARK", "project": "NEOGENO_FOZAMAZONAS", "subprj": "ALL_DATA", "owtype": "WellEntire", "OBJECTID": 14 }, "geometry": { "type": "Point", "coordinates": [ -49.538840984525322, 3.574517006567398 ] } },
{ "type": "Feature", "properties": { "wellid": 13, "uwi": "120510029100", "wllLocId": 13, "cmmnWllNm": "1-APS-4-AP", "latitude": 3.487171, "longitude": -49.262155, "district": "LANDMARK", "project": "NEOGENO_FOZAMAZONAS", "subprj": "ALL_DATA", "owtype": "WellEntire", "OBJECTID": 15 }, "geometry": { "type": "Point", "coordinates": [ -49.262154982989109, 3.487171003032678 ] } },
{ "type": "Feature", "properties": { "wellid": 14, "uwi": "120510041400", "wllLocId": 14, "cmmnWllNm": "1-APS-45B-AP", "latitude": 4.072845, "longitude": -49.717388, "district": "LANDMARK", "project": "NEOGENO_FOZAMAZONAS", "subprj": "ALL_DATA", "owtype": "WellEntire", "OBJECTID": 16 }, "geometry": { "type": "Point", "coordinates": [ -49.717387981936177, 4.072845013828325 ] } },
{ "type": "Feature", "properties": { "wellid": 15, "uwi": "120510031000", "wllLocId": 15, "cmmnWllNm": "1-APS-5-AP", "latitude": 3.096989, "longitude": -48.96224, "district": "LANDMARK", "project": "NEOGENO_FOZAMAZONAS", "subprj": "ALL_DATA", "owtype": "WellEntire", "OBJECTID": 17 }, "geometry": { "type": "Point", "coordinates": [ -48.962239985336531, 3.096988997228107 ] } },
{ "type": "Feature", "properties": { "wellid": 16, "uwi": "120510045500", "wllLocId": 16, "cmmnWllNm": "1-APS-51A-AP", "latitude": 3.045054, "longitude": -47.982639, "district": "LANDMARK", "project": "NEOGENO_FOZAMAZONAS", "subprj": "ALL_DATA", "owtype": "WellEntire", "OBJECTID": 18 }, "geometry": { "type": "Point", "coordinates": [ -47.982638983568528, 3.045053983579186 ] } },
{ "type": "Feature", "properties": { "wellid": 17, "uwi": "120510051800", "wllLocId": 17, "cmmnWllNm": "1-APS-52-AP", "latitude": 4.028822, "longitude": -49.728878, "district": "LANDMARK", "project": "NEOGENO_FOZAMAZONAS", "subprj": "ALL_DATA", "owtype": "WellEntire", "OBJECTID": 19 }, "geometry": { "type": "Point", "coordinates": [ -49.728877982485578, 4.028822013360192 ] } },
{ "type": "Feature", "properties": { "wellid": 18, "uwi": "120510029400", "wllLocId": 18, "cmmnWllNm": "1-APS-6-AP", "latitude": 3.115625, "longitude": -49.157757, "district": "LANDMARK", "project": "NEOGENO_FOZAMAZONAS", "subprj": "ALL_DATA", "owtype": "WellEntire", "OBJECTID": 20 }, "geometry": { "type": "Point", "coordinates": [ -49.157756986143511, 3.115624999418135 ] } },
{ "type": "Feature", "properties": { "wellid": 19, "uwi": "1-APS-7-AP", "wllLocId": 19, "cmmnWllNm": "1-APS-7-AP", "latitude": 2.798241, "longitude": -48.933109, "district": "LANDMARK", "project": "NEOGENO_FOZAMAZONAS", "subprj": "ALL_DATA", "owtype": "WellEntire", "OBJECTID": 21 }, "geometry": { "type": "Point", "coordinates": [ -48.933108988401074, 2.798240995740921 ] } },
{ "type": "Feature", "properties": { "wellid": 23, "uwi": "120510031700", "wllLocId": 23, "cmmnWllNm": "1-APS-17-AP", "latitude": 3.320766, "longitude": -49.518714, "district": "LANDMARK", "project": "NEOGENO_FOZAMAZONAS", "subprj": "ALL_DATA", "owtype": "WellEntire", "OBJECTID": 22 }, "geometry": { "type": "Point", "coordinates": [ -49.518713986616106, 3.320766004212549 ] } },
{ "type": "Feature", "properties": { "wellid": 21, "uwi": "600510027400", "wllLocId": 21, "cmmnWllNm": "1-PAS-4A-PA", "latitude": 0.778389, "longitude": -47.622581, "district": "LANDMARK", "project": "NEOGENO_FOZAMAZONAS", "subprj": "ALL_DATA", "owtype": "WellEntire", "OBJECTID": 23 }, "geometry": { "type": "Point", "coordinates": [ -47.622581009716711, 0.77838899219858 ] } },
{ "type": "Feature", "properties": { "wellid": 22, "uwi": "120510032500", "wllLocId": 22, "cmmnWllNm": "1-APS-12-AP", "latitude": 2.86201, "longitude": -48.749152, "district": "LANDMARK", "project": "NEOGENO_FOZAMAZONAS", "subprj": "ALL_DATA", "owtype": "WellEntire", "OBJECTID": 24 }, "geometry": { "type": "Point", "coordinates": [ -48.74915198718319, 2.86200999392819 ] } },
{ "type": "Feature", "properties": { "wellid": 24, "uwi": "120510034700", "wllLocId": 24, "cmmnWllNm": "1-APS-25-AP", "latitude": 3.368791, "longitude": -49.741571, "district": "LANDMARK", "project": "NEOGENO_FOZAMAZONAS", "subprj": "ALL_DATA", "owtype": "WellEntire", "OBJECTID": 25 }, "geometry": { "type": "Point", "coordinates": [ -49.741570988049112, 3.368791006418772 ] } },
{ "type": "Feature", "properties": { "wellid": 25, "uwi": "120510037300", "wllLocId": 25, "cmmnWllNm": "1-APS-27A-AP", "latitude": 4.321696, "longitude": -50.114392, "district": "LANDMARK", "project": "NEOGENO_FOZAMAZONAS", "subprj": "ALL_DATA", "owtype": "WellEntire", "OBJECTID": 26 }, "geometry": { "type": "Point", "coordinates": [ -50.114391985680626, 4.32169602062774 ] } },
{ "type": "Feature", "properties": { "wellid": 26, "uwi": "120510038900", "wllLocId": 26, "cmmnWllNm": "1-APS-31A-AP", "latitude": 3.857101, "longitude": -49.722941, "district": "LANDMARK", "project": "NEOGENO_FOZAMAZONAS", "subprj": "ALL_DATA", "owtype": "WellEntire", "OBJECTID": 27 }, "geometry": { "type": "Point", "coordinates": [ -49.722940983929398, 3.857101011199632 ] } },
{ "type": "Feature", "properties": { "wellid": 27, "uwi": "120510040700", "wllLocId": 27, "cmmnWllNm": "1-APS-41-AP", "latitude": 2.683079, "longitude": -49.089144, "district": "LANDMARK", "project": "NEOGENO_FOZAMAZONAS", "subprj": "ALL_DATA", "owtype": "WellEntire", "OBJECTID": 28 }, "geometry": { "type": "Point", "coordinates": [ -49.089143989986816, 2.683078996896203 ] } },
{ "type": "Feature", "properties": { "wellid": 28, "uwi": "120510039800", "wllLocId": 28, "cmmnWllNm": "1-APS-44-AP", "latitude": 4.528002, "longitude": -50.087273, "district": "LANDMARK", "project": "NEOGENO_FOZAMAZONAS", "subprj": "ALL_DATA", "owtype": "WellEntire", "OBJECTID": 29 }, "geometry": { "type": "Point", "coordinates": [ -50.08727298379052, 4.528002023850284 ] } },
{ "type": "Feature", "properties": { "wellid": 29, "uwi": "120510057400", "wllLocId": 29, "cmmnWllNm": "1-APS-53-AP", "latitude": 3.490945, "longitude": -48.597872, "district": "LANDMARK", "project": "NEOGENO_FOZAMAZONAS", "subprj": "ALL_DATA", "owtype": "WellEntire", "OBJECTID": 30 }, "geometry": { "type": "Point", "coordinates": [ -48.597871978379587, 3.490944994538172 ] } },
{ "type": "Feature", "properties": { "wellid": 30, "uwi": "120510056900", "wllLocId": 30, "cmmnWllNm": "1-APS-54A-AP", "latitude": 3.517936, "longitude": -48.830622, "district": "LANDMARK", "project": "NEOGENO_FOZAMAZONAS", "subprj": "ALL_DATA", "owtype": "WellEntire", "OBJECTID": 31 }, "geometry": { "type": "Point", "coordinates": [ -48.830621979431641, 3.517935998017099 ] } },
{ "type": "Feature", "properties": { "wellid": 31, "uwi": "12051019339", "wllLocId": 31, "cmmnWllNm": "1-BP-2-APS", "latitude": 4.212387, "longitude": -48.961705, "district": "LANDMARK", "project": "NEOGENO_FOZAMAZONAS", "subprj": "ALL_DATA", "owtype": "WellEntire", "OBJECTID": 32 }, "geometry": { "type": "Point", "coordinates": [ -48.961704970720518, 4.212387006369246 ] } },
{ "type": "Feature", "properties": { "wellid": 32, "uwi": "12050121027", "wllLocId": 32, "cmmnWllNm": "1-BP-3-APS", "latitude": 3.049305, "longitude": -47.746481, "district": "LANDMARK", "project": "NEOGENO_FOZAMAZONAS", "subprj": "ALL_DATA", "owtype": "WellEntire", "OBJECTID": 33 }, "geometry": { "type": "Point", "coordinates": [ -47.746480983648986, 3.049304979561579 ] } },
{ "type": "Feature", "properties": { "wellid": 33, "uwi": "600510037000", "wllLocId": 33, "cmmnWllNm": "1-PAS-2A-PA", "latitude": 1.770707, "longitude": -48.246331, "district": "LANDMARK", "project": "NEOGENO_FOZAMAZONAS", "subprj": "ALL_DATA", "owtype": "WellEntire", "OBJECTID": 34 }, "geometry": { "type": "Point", "coordinates": [ -48.24633099862799, 1.770706989624007 ] } },
{ "type": "Feature", "properties": { "wellid": 34, "uwi": "120510036400", "wllLocId": 34, "cmmnWllNm": "1-APS-35-AP", "latitude": 2.383397, "longitude": -48.372117, "district": "LANDMARK", "project": "NEOGENO_FOZAMAZONAS", "subprj": "ALL_DATA", "owtype": "WellEntire", "OBJECTID": 35 }, "geometry": { "type": "Point", "coordinates": [ -48.372116992274876, 2.383396989270381 ] } },
{ "type": "Feature", "properties": { "wellid": 49, "uwi": "1-APS-23-AP", "wllLocId": 42, "cmmnWllNm": "1-APS-23-AP", "latitude": 3.97574, "longitude": -49.98752, "district": "LANDMARK", "project": "NEOGENO_FOZAMAZONAS", "subprj": "ALL_DATA", "owtype": "WellEntire", "OBJECTID": 36 }, "geometry": { "type": "Point", "coordinates": [ -49.987519986253567, 3.97574001476781 ] } },
{ "type": "Feature", "properties": { "wellid": 40, "uwi": "120510033800", "wllLocId": 37, "cmmnWllNm": "1-APS-21-AP", "latitude": 3.935811, "longitude": -50.023111, "district": "LANDMARK", "project": "NEOGENO_FOZAMAZONAS", "subprj": "ALL_DATA", "owtype": "WellEntire", "OBJECTID": 37 }, "geometry": { "type": "Point", "coordinates": [ -50.023110986987959, 3.935811014500298 ] } },
{ "type": "Feature", "properties": { "wellid": 51, "uwi": "1-APS-27-AP", "wllLocId": 43, "cmmnWllNm": "1-APS-27-AP", "latitude": 4.29464, "longitude": -50.10352, "district": "LANDMARK", "project": "NEOGENO_FOZAMAZONAS", "subprj": "ALL_DATA", "owtype": "WellEntire", "OBJECTID": 38 }, "geometry": { "type": "Point", "coordinates": [ -50.103519985693488, 4.29464002013021 ] } },
{ "type": "Feature", "properties": { "wellid": 53, "uwi": "1-APS-28-AP", "wllLocId": 44, "cmmnWllNm": "1-APS-28-AP", "latitude": 3.25684, "longitude": -49.95092, "district": "LANDMARK", "project": "NEOGENO_FOZAMAZONAS", "subprj": "ALL_DATA", "owtype": "WellEntire", "OBJECTID": 39 }, "geometry": { "type": "Point", "coordinates": [ -49.950919990573261, 3.256840006889916 ] } },
{ "type": "Feature", "properties": { "wellid": 55, "uwi": "1-APS-3-AP", "wllLocId": 45, "cmmnWllNm": "1-APS-3-AP", "latitude": 2.32392, "longitude": -49.43141, "district": "LANDMARK", "project": "NEOGENO_FOZAMAZONAS", "subprj": "ALL_DATA", "owtype": "WellEntire", "OBJECTID": 40 }, "geometry": { "type": "Point", "coordinates": [ -49.431409993708847, 2.323919998538199 ] } },
{ "type": "Feature", "properties": { "wellid": 41, "uwi": "120510035000", "wllLocId": 38, "cmmnWllNm": "1-APS-26A-AP", "latitude": 3.671361, "longitude": -49.395761, "district": "LANDMARK", "project": "NEOGENO_FOZAMAZONAS", "subprj": "ALL_DATA", "owtype": "WellEntire", "OBJECTID": 41 }, "geometry": { "type": "Point", "coordinates": [ -49.395760982226854, 3.671361006076496 ] } },
{ "type": "Feature", "properties": { "wellid": 57, "uwi": "1-APS-38-AP", "wllLocId": 46, "cmmnWllNm": "1-APS-38-AP", "latitude": 2.5743, "longitude": -48.78625, "district": "LANDMARK", "project": "NEOGENO_FOZAMAZONAS", "subprj": "ALL_DATA", "owtype": "WellEntire", "OBJECTID": 42 }, "geometry": { "type": "Point", "coordinates": [ -48.786249990331228, 2.574299993726168 ] } },
{ "type": "Feature", "properties": { "wellid": 59, "uwi": "1-APS-47B-A", "wllLocId": 47, "cmmnWllNm": "1-APS-47B-A", "latitude": 2.46661, "longitude": -49.03983, "district": "LANDMARK", "project": "NEOGENO_FOZAMAZONAS", "subprj": "ALL_DATA", "owtype": "WellEntire", "OBJECTID": 43 }, "geometry": { "type": "Point", "coordinates": [ -49.039829991760392, 2.466609995914931 ] } },
{ "type": "Feature", "properties": { "wellid": 61, "uwi": "1-APS-6A-AP", "wllLocId": 48, "cmmnWllNm": "1-APS-6A-AP", "latitude": 3.1188, "longitude": -49.15918, "district": "LANDMARK", "project": "NEOGENO_FOZAMAZONAS", "subprj": "ALL_DATA", "owtype": "WellEntire", "OBJECTID": 44 }, "geometry": { "type": "Point", "coordinates": [ -49.159179986119341, 3.118799999450313 ] } },
{ "type": "Feature", "properties": { "wellid": 63, "uwi": "1-APS-9-AP", "wllLocId": 49, "cmmnWllNm": "1-APS-9-AP", "latitude": 2.93612, "longitude": -48.74184, "district": "LANDMARK", "project": "NEOGENO_FOZAMAZONAS", "subprj": "ALL_DATA", "owtype": "WellEntire", "OBJECTID": 45 }, "geometry": { "type": "Point", "coordinates": [ -48.741839986310154, 2.936119994058242 ] } }
]
}
