{"type": "FeatureCollection", "features": [{"type": "Feature", "properties": {"FONTE_CAMADA": "Sísmica 2D pública — ANP (Disponíveis)", "Interpret": "Nao iniciada", "OBJECTID": 2.0, "Shape_Leng": 0.0, "cmpnntGmId": 5.0, "district": "LANDMARK", "owtype": "Seis2DLine", "project": "NEOGENO_FOZAMAZONAS", "ss2dUqLnId": "0048-0186 ANP", "ssGmStId": 262, "ssGmStNm": "0048-0186 ANP", "subprj": "ALL_DATA"}, "geometry": {"type": "LineString", "coordinates": [[-47.37962, 0.42582], [-47.56812, 0.70557], [-47.58213, 0.72461], [-47.67523, 0.86362], [-47.68764, 0.88026], [-47.74977, 0.97132], [-47.78474, 1.02321], [-47.8298, 1.09073], [-47.84578, 1.11369], [-47.87769, 1.16117]]}}, {"type": "Feature", "properties": {"FONTE_CAMADA": "Sísmica 2D pública — ANP (Disponíveis)", "Interpret": "Nao iniciada", "OBJECTID": 3.0, "Shape_Leng": 0.0, "cmpnntGmId": 5.0, "district": "LANDMARK", "owtype": "Seis2DLine", "project": "NEOGENO_FOZAMAZONAS", "ss2dUqLnId": "0048-0194 ANP", "ssGmStId": 263, "ssGmStNm": "0048-0194 ANP", "subprj": "ALL_DATA"}, "geometry": {"type": "LineString", "coordinates": [[-47.58302, 0.60322], [-47.56049, 0.62288], [-47.53773, 0.64278], [-47.40975, 0.75627], [-47.36172, 0.80041], [-47.19299, 0.95173], [-47.12842, 1.00888], [-47.08918, 1.04609], [-47.05235, 1.07803], [-46.98059, 1.14236], [-46.92234, 1.1943], [-46.89319, 1.22078], [-46.80079, 1.30324], [-46.65845, 1.43374]]}}, {"type": "Feature", "properties": {"FONTE_CAMADA": "Sísmica 2D pública — ANP (Disponíveis)", "Interpret": "Nao iniciada", "OBJECTID": 9.0, "Shape_Leng": 0.0, "cmpnntGmId": 5.0, "district": "LANDMARK", "owtype": "Seis2DLine", "project": "NEOGENO_FOZAMAZONAS", "ss2dUqLnId": "0073-0081 ANP", "ssGmStId": 269, "ssGmStNm": "0073-0081 ANP", "subprj": "ALL_DATA"}, "geometry": {"type": "LineString", "coordinates": [[-48.547, 3.57681], [-48.597, 3.52302]]}}, {"type": "Feature", "properties": {"FONTE_CAMADA": "Sísmica 2D pública — ANP (Disponíveis)", "Interpret": "Nao iniciada", "OBJECTID": 13.0, "Shape_Leng": 0.0, "cmpnntGmId": 5.0, "district": "LANDMARK", "owtype": "Seis2DLine", "project": "NEOGENO_FOZAMAZONAS", "ss2dUqLnId": "0092-0022_1_5", "ssGmStId": 273, "ssGmStNm": "0092-0022_1_5", "subprj": "ALL_DATA"}, "geometry": {"type": "LineString", "coordinates": [[-48.12273, 3.16734], [-48.51906, 3.50712]]}}, {"type": "Feature", "properties": {"FONTE_CAMADA": "Sísmica 2D pública — ANP (Disponíveis)", "Interpret": "Nao iniciada", "OBJECTID": 14.0, "Shape_Leng": 0.0, "cmpnntGmId": 5.0, "district": "LANDMARK", "owtype": "Seis2DLine", "project": "NEOGENO_FOZAMAZONAS", "ss2dUqLnId": "0092-0044", "ssGmStId": 274, "ssGmStNm": "0092-0044", "subprj": "ALL_DATA"}, "geometry": {"type": "LineString", "coordinates": [[-48.44209, 3.17214], [-48.42727, 3.16758], [-48.42646, 3.16429], [-48.42364, 3.16386], [-48.41903, 3.15831], [-48.41563, 3.15672], [-48.41194, 3.15065], [-48.40615, 3.14902], [-48.40319, 3.14702], [-48.39841, 3.14015], [-48.39601, 3.13962], [-48.3856, 3.12911], [-48.38373, 3.12879], [-48.38174, 3.12475], [-48.37398, 3.12032], [-48.37204, 3.11775], [-48.36744, 3.11503], [-48.36547, 3.11151], [-48.33671, 3.08694], [-48.33054, 3.08148], [-48.32766, 3.08054], [-48.31776, 3.07142], [-48.31134, 3.06446], [-48.30814, 3.06203], [-48.30428, 3.06141], [-48.30372, 3.06069], [-48.29731, 3.05199], [-48.29496, 3.05182], [-48.29048, 3.04664], [-48.28103, 3.04039], [-48.27563, 3.03349], [-48.27069, 3.03173], [-48.26396, 3.02439], [-48.25811, 3.02072], [-48.25386, 3.0142], [-48.24846, 3.01264], [-48.24461, 3.00893], [-48.24214, 3.00448], [-48.23807, 3.00221], [-48.22655, 2.99183], [-48.20695, 2.97543]]}}, {"type": "Feature", "properties": {"FONTE_CAMADA": "Sísmica 2D pública — ANP (Disponíveis)", "Interpret": "Nao iniciada", "OBJECTID": 15.0, "Shape_Leng": 0.0, "cmpnntGmId": 5.0, "district": "LANDMARK", "owtype": "Seis2DLine", "project": "NEOGENO_FOZAMAZONAS", "ss2dUqLnId": "0092-0247", "ssGmStId": 275, "ssGmStNm": "0092-0247", "subprj": "ALL_DATA"}, "geometry": {"type": "LineString", "coordinates": [[-47.8272, 2.46058], [-47.80016, 2.48752], [-47.76951, 2.52376], [-47.75022, 2.54413], [-47.73159, 2.56992], [-47.71504, 2.58886], [-47.70089, 2.60358], [-47.69221, 2.61602], [-47.68275, 2.62488], [-47.67092, 2.6396], [-47.66151, 2.64782], [-47.65506, 2.65904], [-47.64821, 2.66442], [-47.64317, 2.66972], [-47.63578, 2.68124], [-47.62687, 2.68878]]}}, {"type": "Feature", "properties": {"FONTE_CAMADA": "Sísmica 2D pública — ANP (Disponíveis)", "Interpret": "Nao iniciada", "OBJECTID": 21.0, "Shape_Leng": 0.0, "cmpnntGmId": 5.0, "district": "LANDMARK", "owtype": "Seis2DLine", "project": "NEOGENO_FOZAMAZONAS", "ss2dUqLnId": "0222-0763 ANP", "ssGmStId": 281, "ssGmStNm": "0222-0763 ANP", "subprj": "ALL_DATA"}, "geometry": {"type": "LineString", "coordinates": [[-48.52296, 3.33568], [-48.40776, 3.44243]]}}, {"type": "Feature", "properties": {"FONTE_CAMADA": "Sísmica 2D pública — ANP (Disponíveis)", "Interpret": "Nao iniciada", "OBJECTID": 22.0, "Shape_Leng": 0.0, "cmpnntGmId": 5.0, "district": "LANDMARK", "owtype": "Seis2DLine", "project": "NEOGENO_FOZAMAZONAS", "ss2dUqLnId": "0222-0778", "ssGmStId": 282, "ssGmStNm": "0222-0778", "subprj": "ALL_DATA"}, "geometry": {"type": "LineString", "coordinates": [[-48.67434, 3.36037], [-48.69183, 3.37648], [-48.81057, 3.47879]]}}, {"type": "Feature", "properties": {"FONTE_CAMADA": "Sísmica 2D pública — ANP (Disponíveis)", "Interpret": "Em interpretacao", "OBJECTID": 40.0, "Shape_Leng": 0.0, "cmpnntGmId": 5.0, "district": "LANDMARK", "owtype": "Seis2DLine", "project": "NEOGENO_FOZAMAZONAS", "ss2dUqLnId": "0239-0041", "ssGmStId": 300, "ssGmStNm": "0239-0041", "subprj": "ALL_DATA"}, "geometry": {"type": "LineString", "coordinates": [[-48.47004, 3.50253], [-48.48244, 3.49105], [-49.33735, 2.69715]]}}, {"type": "Feature", "properties": {"FONTE_CAMADA": "Sísmica 2D pública — ANP (Disponíveis)", "Interpret": "Em interpretacao", "OBJECTID": 41.0, "Shape_Leng": 0.0, "cmpnntGmId": 5.0, "district": "LANDMARK", "owtype": "Seis2DLine", "project": "NEOGENO_FOZAMAZONAS", "ss2dUqLnId": "0239-0042_1", "ssGmStId": 301, "ssGmStNm": "0239-0042_1", "subprj": "ALL_DATA"}, "geometry": {"type": "LineString", "coordinates": [[-48.90085, 2.49596], [-48.87127, 2.52584], [-48.27282, 3.08308], [-48.23219, 3.12101], [-48.22884, 3.12559], [-48.22578, 3.12727], [-48.22339, 3.13023], [-48.21958, 3.13359], [-48.20844, 3.14244], [-48.1522, 3.19578]]}}, {"type": "Feature", "properties": {"FONTE_CAMADA": "Sísmica 2D pública — ANP (Disponíveis)", "Interpret": "Nao iniciada", "OBJECTID": 42.0, "Shape_Leng": 0.0, "cmpnntGmId": 5.0, "district": "LANDMARK", "owtype": "Seis2DLine", "project": "NEOGENO_FOZAMAZONAS", "ss2dUqLnId": "0239-0043", "ssGmStId": 302, "ssGmStNm": "0239-0043", "subprj": "ALL_DATA"}, "geometry": {"type": "LineString", "coordinates": [[-48.11836, 3.16312], [-48.13449, 3.14793], [-48.13827, 3.14428], [-48.14179, 3.14088], [-48.14529, 3.13748], [-48.1488, 3.13408], [-48.30272, 2.99117]]}}, {"type": "Feature", "properties": {"FONTE_CAMADA": "Sísmica 2D pública — ANP (Disponíveis)", "Interpret": "Nao iniciada", "OBJECTID": 43.0, "Shape_Leng": 0.0, "cmpnntGmId": 5.0, "district": "LANDMARK", "owtype": "Seis2DLine", "project": "NEOGENO_FOZAMAZONAS", "ss2dUqLnId": "0239-0044", "ssGmStId": 303, "ssGmStNm": "0239-0044", "subprj": "ALL_DATA"}, "geometry": {"type": "LineString", "coordinates": [[-48.20626, 2.92619], [-48.03622, 3.08385]]}}, {"type": "Feature", "properties": {"FONTE_CAMADA": "Sísmica 2D pública — ANP (Disponíveis)", "Interpret": "Nao iniciada", "OBJECTID": 46.0, "Shape_Leng": 0.0, "cmpnntGmId": 5.0, "district": "LANDMARK", "owtype": "Seis2DLine", "project": "NEOGENO_FOZAMAZONAS", "ss2dUqLnId": "0239-0047 ANP", "ssGmStId": 308, "ssGmStNm": "0239-0047 ANP", "subprj": "ALL_DATA"}, "geometry": {"type": "LineString", "coordinates": [[-48.03516, 2.762], [-47.86571, 2.91929]]}}, {"type": "Feature", "properties": {"FONTE_CAMADA": "Sísmica 2D pública — ANP (Disponíveis)", "Interpret": "Nao iniciada", "OBJECTID": 47.0, "Shape_Leng": 0.0, "cmpnntGmId": 5.0, "district": "LANDMARK", "owtype": "Seis2DLine", "project": "NEOGENO_FOZAMAZONAS", "ss2dUqLnId": "0239-0048", "ssGmStId": 309, "ssGmStNm": "0239-0048", "subprj": "ALL_DATA"}, "geometry": {"type": "LineString", "coordinates": [[-48.30774, 2.4167], [-47.81767, 2.87292]]}}, {"type": "Feature", "properties": {"FONTE_CAMADA": "Sísmica 2D pública — ANP (Disponíveis)", "Interpret": "Nao iniciada", "OBJECTID": 49.0, "Shape_Leng": 0.0, "cmpnntGmId": 5.0, "district": "LANDMARK", "owtype": "Seis2DLine", "project": "NEOGENO_FOZAMAZONAS", "ss2dUqLnId": "0239-00491", "ssGmStId": 311, "ssGmStNm": "0239-00491", "subprj": "ALL_DATA"}, "geometry": {"type": "LineString", "coordinates": [[-47.50711, 2.5732], [-47.70965, 2.38566]]}}, {"type": "Feature", "properties": {"FONTE_CAMADA": "Sísmica 2D pública — ANP (Disponíveis)", "Interpret": "Nao iniciada", "OBJECTID": 50.0, "Shape_Leng": 0.0, "cmpnntGmId": 5.0, "district": "LANDMARK", "owtype": "Seis2DLine", "project": "NEOGENO_FOZAMAZONAS", "ss2dUqLnId": "0239-0050", "ssGmStId": 312, "ssGmStNm": "0239-0050", "subprj": "ALL_DATA"}, "geometry": {"type": "LineString", "coordinates": [[-47.52313, 2.01523], [-47.21936, 2.29549]]}}, {"type": "Feature", "properties": {"FONTE_CAMADA": "Sísmica 2D pública — ANP (Disponíveis)", "Interpret": "Nao iniciada", "OBJECTID": 51.0, "Shape_Leng": 0.0, "cmpnntGmId": 5.0, "district": "LANDMARK", "owtype": "Seis2DLine", "project": "NEOGENO_FOZAMAZONAS", "ss2dUqLnId": "0239-0051 ANP", "ssGmStId": 313, "ssGmStNm": "0239-0051 ANP", "subprj": "ALL_DATA"}, "geometry": {"type": "LineString", "coordinates": [[-46.88586, 1.97362], [-46.9256, 1.93678], [-46.94332, 1.92256], [-46.97384, 1.89199], [-47.11393, 1.76127]]}}, {"type": "Feature", "properties": {"FONTE_CAMADA": "Sísmica 2D pública — ANP (Disponíveis)", "Interpret": "Nao iniciada", "OBJECTID": 52.0, "Shape_Leng": 0.0, "cmpnntGmId": 5.0, "district": "LANDMARK", "owtype": "Seis2DLine", "project": "NEOGENO_FOZAMAZONAS", "ss2dUqLnId": "0239-0051", "ssGmStId": 314, "ssGmStNm": "0239-0051", "subprj": "ALL_DATA"}, "geometry": {"type": "LineString", "coordinates": [[-46.88586, 1.97362], [-46.92785, 1.9347], [-46.94282, 1.92303], [-46.97628, 1.88963], [-47.11393, 1.76127]]}}, {"type": "Feature", "properties": {"FONTE_CAMADA": "Sísmica 2D pública — ANP (Disponíveis)", "Interpret": "Nao iniciada", "OBJECTID": 53.0, "Shape_Leng": 0.0, "cmpnntGmId": 5.0, "district": "LANDMARK", "owtype": "Seis2DLine", "project": "NEOGENO_FOZAMAZONAS", "ss2dUqLnId": "0239-0052", "ssGmStId": 315, "ssGmStNm": "0239-0052", "subprj": "ALL_DATA"}, "geometry": {"type": "LineString", "coordinates": [[-46.75848, 1.85068], [-46.98767, 1.6346]]}}, {"type": "Feature", "properties": {"FONTE_CAMADA": "Sísmica 2D pública — ANP (Disponíveis)", "Interpret": "Nao iniciada", "OBJECTID": 54.0, "Shape_Leng": 0.0, "cmpnntGmId": 5.0, "district": "LANDMARK", "owtype": "Seis2DLine", "project": "NEOGENO_FOZAMAZONAS", "ss2dUqLnId": "0239-0053", "ssGmStId": 316, "ssGmStNm": "0239-0053", "subprj": "ALL_DATA"}, "geometry": {"type": "LineString", "coordinates": [[-46.85009, 1.51529], [-46.62645, 1.72325]]}}, {"type": "Feature", "properties": {"FONTE_CAMADA": "Sísmica 2D pública — ANP (Disponíveis)", "Interpret": "Nao iniciada", "OBJECTID": 55.0, "Shape_Leng": 0.0, "cmpnntGmId": 5.0, "district": "LANDMARK", "owtype": "Seis2DLine", "project": "NEOGENO_FOZAMAZONAS", "ss2dUqLnId": "0239-0054", "ssGmStId": 317, "ssGmStNm": "0239-0054", "subprj": "ALL_DATA"}, "geometry": {"type": "LineString", "coordinates": [[-47.3571, 2.243], [-47.0449, 1.9758], [-46.90422, 1.85553], [-46.40995, 1.43132]]}}, {"type": "Feature", "properties": {"FONTE_CAMADA": "Sísmica 2D pública — ANP (Disponíveis)", "Interpret": "Nao iniciada", "OBJECTID": 70.0, "Shape_Leng": 0.0, "cmpnntGmId": 5.0, "district": "LANDMARK", "owtype": "Seis2DLine", "project": "NEOGENO_FOZAMAZONAS", "ss2dUqLnId": "0239-00452", "ssGmStId": 306, "ssGmStNm": "0239-00452", "subprj": "ALL_DATA"}, "geometry": {"type": "LineString", "coordinates": [[-47.9879, 3.03722], [-48.39507, 2.65531]]}}, {"type": "Feature", "properties": {"FONTE_CAMADA": "Sísmica 2D pública — ANP (Disponíveis)", "Interpret": "Nao iniciada", "OBJECTID": 72.0, "Shape_Leng": 0.0, "cmpnntGmId": 5.0, "district": "LANDMARK", "owtype": "Seis2DLine", "project": "NEOGENO_FOZAMAZONAS", "ss2dUqLnId": "0239-0122 ANP", "ssGmStId": 332, "ssGmStNm": "0239-0122 ANP", "subprj": "ALL_DATA"}, "geometry": {"type": "LineString", "coordinates": [[-49.62985, 2.66622], [-49.54981, 2.73842], [-49.0494, 3.18914], [-49.00559, 3.22678], [-48.98211, 3.25063], [-48.95256, 3.27657], [-48.91509, 3.31009], [-48.82024, 3.39547], [-48.81156, 3.40164], [-48.78201, 3.4363], [-48.76914, 3.44776]]}}, {"type": "Feature", "properties": {"FONTE_CAMADA": "Sísmica 2D pública — ANP (Disponíveis)", "Interpret": "Nao iniciada", "OBJECTID": 73.0, "Shape_Leng": 0.0, "cmpnntGmId": 5.0, "district": "LANDMARK", "owtype": "Seis2DLine", "project": "NEOGENO_FOZAMAZONAS", "ss2dUqLnId": "0239-0122", "ssGmStId": 333, "ssGmStNm": "0239-0122", "subprj": "ALL_DATA"}, "geometry": {"type": "LineString", "coordinates": [[-49.60872, 2.68292], [-49.55104, 2.73483], [-49.05011, 3.18603], [-49.00581, 3.22413], [-48.98414, 3.24634], [-48.95454, 3.27232], [-48.92184, 3.30143], [-48.81799, 3.395], [-48.81216, 3.39863], [-48.78239, 3.43348], [-48.77167, 3.44392], [-48.76772, 3.44571]]}}, {"type": "Feature", "properties": {"FONTE_CAMADA": "Sísmica 2D pública — ANP (Disponíveis)", "Interpret": "Nao iniciada", "OBJECTID": 74.0, "Shape_Leng": 0.0, "cmpnntGmId": 5.0, "district": "LANDMARK", "owtype": "Seis2DLine", "project": "NEOGENO_FOZAMAZONAS", "ss2dUqLnId": "0239-01222 ANP", "ssGmStId": 334, "ssGmStNm": "0239-01222 ANP", "subprj": "ALL_DATA"}, "geometry": {"type": "LineString", "coordinates": [[-48.80383, 3.40904], [-48.58098, 3.6096]]}}, {"type": "Feature", "properties": {"FONTE_CAMADA": "Sísmica 2D pública — ANP (Disponíveis)", "Interpret": "Nao iniciada", "OBJECTID": 75.0, "Shape_Leng": 0.0, "cmpnntGmId": 5.0, "district": "LANDMARK", "owtype": "Seis2DLine", "project": "NEOGENO_FOZAMAZONAS", "ss2dUqLnId": "0239-01222", "ssGmStId": 335, "ssGmStNm": "0239-01222", "subprj": "ALL_DATA"}, "geometry": {"type": "LineString", "coordinates": [[-48.78304, 3.42617], [-48.57985, 3.60851]]}}, {"type": "Feature", "properties": {"FONTE_CAMADA": "Sísmica 2D pública — ANP (Disponíveis)", "Interpret": "Nao iniciada", "OBJECTID": 78.0, "Shape_Leng": 0.0, "cmpnntGmId": 5.0, "district": "LANDMARK", "owtype": "Seis2DLine", "project": "NEOGENO_FOZAMAZONAS", "ss2dUqLnId": "0239-0123", "ssGmStId": 338, "ssGmStNm": "0239-0123", "subprj": "ALL_DATA"}, "geometry": {"type": "LineString", "coordinates": [[-47.37344, 2.44419], [-47.43754, 2.38532], [-47.69644, 2.14747], [-48.18455, 1.6991], [-48.21879, 1.66758], [-48.30955, 1.58313], [-48.40206, 1.50006], [-48.46635, 1.43863], [-48.50544, 1.40343]]}}, {"type": "Feature", "properties": {"FONTE_CAMADA": "Sísmica 2D pública — ANP (Disponíveis)", "Interpret": "Nao iniciada", "OBJECTID": 87.0, "Shape_Leng": 0.0, "cmpnntGmId": 5.0, "district": "LANDMARK", "owtype": "Seis2DLine", "project": "NEOGENO_FOZAMAZONAS", "ss2dUqLnId": "0270-1015 ANP", "ssGmStId": 347, "ssGmStNm": "0270-1015 ANP", "subprj": "ALL_DATA"}, "geometry": {"type": "LineString", "coordinates": [[-48.52379, 3.02667], [-48.26848, 3.30801]]}}, {"type": "Feature", "properties": {"FONTE_CAMADA": "Sísmica 2D pública — ANP (Disponíveis)", "Interpret": "Nao iniciada", "OBJECTID": 88.0, "Shape_Leng": 0.0, "cmpnntGmId": 5.0, "district": "LANDMARK", "owtype": "Seis2DLine", "project": "NEOGENO_FOZAMAZONAS", "ss2dUqLnId": "0270-1016 ANP", "ssGmStId": 348, "ssGmStNm": "0270-1016 ANP", "subprj": "ALL_DATA"}, "geometry": {"type": "LineString", "coordinates": [[-48.13893, 3.18298], [-48.41537, 2.8788]]}}, {"type": "Feature", "properties": {"FONTE_CAMADA": "Sísmica 2D pública — ANP (Disponíveis)", "Interpret": "Nao iniciada", "OBJECTID": 89.0, "Shape_Leng": 0.0, "cmpnntGmId": 5.0, "district": "LANDMARK", "owtype": "Seis2DLine", "project": "NEOGENO_FOZAMAZONAS", "ss2dUqLnId": "0270-1022 ANP", "ssGmStId": 350, "ssGmStNm": "0270-1022 ANP", "subprj": "ALL_DATA"}, "geometry": {"type": "LineString", "coordinates": [[-48.29908, 1.3985], [-48.09066, 1.62861], [-48.08127, 1.63742], [-48.06729, 1.65442], [-47.84911, 1.89558], [-47.81141, 1.95558], [-47.75825, 2.01578], [-47.72212, 2.04451], [-47.66725, 2.0767], [-47.57516, 2.17759], [-47.56584, 2.1882], [-47.54057, 2.23374], [-47.52683, 2.25123], [-47.36192, 2.43307]]}}, {"type": "Feature", "properties": {"FONTE_CAMADA": "Sísmica 2D pública — ANP (Disponíveis)", "Interpret": "Nao iniciada", "OBJECTID": 90.0, "Shape_Leng": 0.0, "cmpnntGmId": 5.0, "district": "LANDMARK", "owtype": "Seis2DLine", "project": "NEOGENO_FOZAMAZONAS", "ss2dUqLnId": "0270-1025 ANP", "ssGmStId": 351, "ssGmStNm": "0270-1025 ANP", "subprj": "ALL_DATA"}, "geometry": {"type": "LineString", "coordinates": [[-47.95556, 0.97286], [-47.56932, 1.39982], [-47.54223, 1.44642], [-47.49544, 1.49871], [-47.43464, 1.55408], [-47.41459, 1.56998], [-47.37649, 1.59612], [-47.36172, 1.60936], [-47.19266, 1.79535], [-47.15875, 1.83298], [-47.12138, 1.89249], [-47.11273, 1.90377], [-46.97311, 2.05783]]}}, {"type": "Feature", "properties": {"FONTE_CAMADA": "Sísmica 2D pública — ANP (Disponíveis)", "Interpret": "Nao iniciada", "OBJECTID": 103.0, "Shape_Leng": 0.0, "cmpnntGmId": 5.0, "district": "LANDMARK", "owtype": "Seis2DLine", "project": "NEOGENO_FOZAMAZONAS", "ss2dUqLnId": "0275-17400 ANP", "ssGmStId": 364, "ssGmStNm": "0275-17400 ANP", "subprj": "ALL_DATA"}, "geometry": {"type": "LineString", "coordinates": [[-46.49216, 1.18921], [-46.51503, 1.20957], [-46.6004, 1.28348], [-46.68934, 1.36785], [-46.73023, 1.4041], [-46.79582, 1.46708], [-46.81625, 1.4833], [-46.95421, 1.61015], [-47.14267, 1.78793], [-47.16628, 1.80601], [-47.39785, 2.01873], [-47.85152, 2.44137], [-47.96428, 2.54311], [-47.98777, 2.5611], [-48.541, 3.07307], [-48.62556, 3.14934], [-48.64684, 3.16556], [-48.704, 3.21824]]}}, {"type": "Feature", "properties": {"FONTE_CAMADA": "Sísmica 2D pública — ANP (Disponíveis)", "Interpret": "Nao iniciada", "OBJECTID": 106.0, "Shape_Leng": 0.0, "cmpnntGmId": 5.0, "district": "LANDMARK", "owtype": "Seis2DLine", "project": "NEOGENO_FOZAMAZONAS", "ss2dUqLnId": "0278-0129 ANP invertido", "ssGmStId": 367, "ssGmStNm": "0278-0129 ANP invertido", "subprj": "ALL_DATA"}, "geometry": {"type": "LineString", "coordinates": [[-47.86094, 2.65063], [-47.83327, 2.67752], [-47.81681, 2.69069], [-47.81433, 2.69535], [-47.80825, 2.69885], [-47.78828, 2.71857], [-47.72079, 2.77942]]}}, {"type": "Feature", "properties": {"FONTE_CAMADA": "Sísmica 2D pública — ANP (Disponíveis)", "Interpret": "Nao iniciada", "OBJECTID": 107.0, "Shape_Leng": 0.0, "cmpnntGmId": 5.0, "district": "LANDMARK", "owtype": "Seis2DLine", "project": "NEOGENO_FOZAMAZONAS", "ss2dUqLnId": "0278-0133 ANP", "ssGmStId": 368, "ssGmStNm": "0278-0133 ANP", "subprj": "ALL_DATA"}, "geometry": {"type": "LineString", "coordinates": [[-47.77437, 2.83113], [-47.79151, 2.81624], [-47.79141, 2.81492], [-47.79212, 2.81556], [-47.79463, 2.81331], [-47.7962, 2.81032], [-47.7972, 2.81112], [-47.79681, 2.80998], [-47.79756, 2.8093], [-47.79836, 2.81005], [-47.79783, 2.80909], [-47.79923, 2.80762], [-47.80026, 2.80812], [-47.79985, 2.80678], [-47.8045, 2.80426], [-47.8044, 2.80277], [-47.8054, 2.80356], [-47.80464, 2.80251], [-47.80757, 2.80142], [-47.80951, 2.79833], [-47.8103, 2.79907], [-47.81458, 2.79337], [-47.81557, 2.79417], [-47.81567, 2.79256], [-47.82143, 2.78684], [-47.82236, 2.78755], [-47.82156, 2.78648], [-47.82239, 2.78707], [-47.82428, 2.78547], [-47.82412, 2.78409], [-47.8249, 2.78482], [-47.82657, 2.78193], [-47.82753, 2.78269], [-47.82704, 2.78145], [-47.83, 2.78038], [-47.82983, 2.77899], [-47.83055, 2.77966], [-47.83592, 2.77365], [-47.8368, 2.77432], [-47.8385, 2.77115], [-47.84881, 2.76293], [-47.84827, 2.76195], [-47.84929, 2.76297], [-47.84859, 2.76181], [-47.84943, 2.76259], [-47.84921, 2.76115], [-47.85556, 2.75661], [-47.85487, 2.75548], [-47.85589, 2.75648], [-47.8552, 2.75535], [-47.85629, 2.75643], [-47.85729, 2.75534], [-47.85672, 2.75435], [-47.85793, 2.7547], [-47.86236, 2.74884], [-47.86327, 2.74953], [-47.86276, 2.74826], [-47.86378, 2.74926], [-47.8632, 2.74825], [-47.86394, 2.74893], [-47.86465, 2.74682], [-47.86538, 2.74749], [-47.86565, 2.74592], [-47.86654, 2.74659], [-47.86836, 2.74508], [-47.86893, 2.74302], [-47.86985, 2.74373], [-47.86929, 2.7429], [-47.87112, 2.74209], [-47.87147, 2.74027], [-47.87279, 2.7411], [-47.87237, 2.73993], [-47.87365, 2.74019], [-47.87674, 2.73551], [-47.88586, 2.729], [-47.88727, 2.72738], [-47.88672, 2.72642], [-47.88745, 2.72708], [-47.88755, 2.72582], [-47.88837, 2.7266], [-47.88789, 2.72569], [-47.88957, 2.7259], [-47.88848, 2.72449], [-47.88965, 2.72548], [-47.88994, 2.7236], [-47.89137, 2.72403], [-47.89031, 2.72247], [-47.89148, 2.72364], [-47.89222, 2.72159], [-47.89292, 2.72223], [-47.89227, 2.72113], [-47.89331, 2.72214], [-47.8927, 2.7211], [-47.89288, 2.72081], [-47.89387, 2.72177], [-47.89324, 2.72088], [-47.89421, 2.72112], [-47.89391, 2.71993], [-47.89595, 2.71935], [-47.89534, 2.71797], [-47.89658, 2.71905], [-47.89695, 2.71844], [-47.89619, 2.7174], [-47.89669, 2.71696], [-47.89773, 2.7178], [-47.89707, 2.71636], [-47.89834, 2.71747], [-47.89892, 2.71642], [-47.89819, 2.71507], [-47.89955, 2.71645], [-47.89904, 2.7157], [-47.89854, 2.71495], [-47.89987, 2.71632], [-47.89887, 2.71482], [-47.89984, 2.71578], [-47.89952, 2.7142], [-47.90052, 2.715], [-47.89999, 2.71425], [-47.90161, 2.71401], [-47.90096, 2.71294], [-47.90199, 2.71393], [-47.90131, 2.71281], [-47.90233, 2.71331], [-47.90421, 2.71154], [-47.90364, 2.71038], [-47.90471, 2.71142], [-47.90413, 2.71041], [-47.90662, 2.70796], [-47.90743, 2.70872], [-47.90812, 2.70642], [-47.9084, 2.70623], [-47.90932, 2.70712], [-47.90874, 2.70576], [-47.90975, 2.70658], [-47.91024, 2.7044], [-47.91144, 2.70542], [-47.91065, 2.70419], [-47.91115, 2.70373], [-47.91221, 2.70478], [-47.9113, 2.7034], [-47.91244, 2.70451], [-47.91147, 2.70307], [-47.91246, 2.70402], [-47.91189, 2.70303], [-47.91275, 2.70385], [-47.91212, 2.7028], [-47.91307, 2.7037], [-47.91275, 2.70214], [-47.9139, 2.70312], [-47.9135, 2.70215], [-47.91436, 2.70177], [-47.91516, 2.7025], [-47.91381, 2.70079], [-47.91525, 2.7021], [-47.91554, 2.70193], [-47.91445, 2.70049], [-47.91556, 2.70144], [-47.91512, 2.69974], [-47.91633, 2.70093], [-47.91603, 2.69922], [-47.91782, 2.69904], [-47.91701, 2.69794], [-47.91831, 2.69927], [-47.9174, 2.69789], [-47.91847, 2.69894], [-47.91793, 2.69796], [-47.91931, 2.69836], [-47.91804, 2.69656], [-47.91971, 2.69831], [-47.91858, 2.69667], [-47.91951, 2.69758], [-47.91904, 2.69616], [-47.91989, 2.69646], [-47.92095, 2.69751], [-47.9191, 2.69522], [-47.92007, 2.69616], [-47.92104, 2.69709], [-47.92173, 2.69703], [-47.91986, 2.69453], [-47.92187, 2.69666], [-47.9201, 2.69429], [-47.92183, 2.69609], [-47.92081, 2.69459], [-47.92209, 2.69317], [-47.92113, 2.6919], [-47.92224, 2.69282], [-47.92119, 2.69146], [-47.92219, 2.69225], [-47.92132, 2.69109], [-47.92213, 2.69114], [-47.92137, 2.68993], [-47.92218, 2.69053], [-47.92165, 2.68751], [-47.92272, 2.68857], [-47.9215, 2.68686], [-47.92259, 2.68792], [-47.92158, 2.68644], [-47.92263, 2.68745], [-47.92165, 2.68598], [-47.92239, 2.68648], [-47.92289, 2.68398], [-47.92227, 2.68292], [-47.92306, 2.68365], [-47.92238, 2.68252], [-47.92306, 2.68315], [-47.92245, 2.68209], [-47.92307, 2.68264], [-47.92313, 2.67793]]}}, {"type": "Feature", "properties": {"FONTE_CAMADA": "Sísmica 2D pública — ANP (Disponíveis)", "Interpret": "Nao iniciada", "OBJECTID": 108.0, "Shape_Leng": 0.0, "cmpnntGmId": 5.0, "district": "LANDMARK", "owtype": "Seis2DLine", "project": "NEOGENO_FOZAMAZONAS", "ss2dUqLnId": "0278-0143 ANP", "ssGmStId": 369, "ssGmStNm": "0278-0143 ANP", "subprj": "ALL_DATA"}, "geometry": {"type": "LineString", "coordinates": [[-48.06822, 2.81555], [-48.05612, 2.81964], [-48.05191, 2.8195], [-48.04456, 2.82413], [-47.98602, 2.87993], [-47.9821, 2.88179], [-47.9795, 2.88615], [-47.97703, 2.88627], [-47.97487, 2.89026], [-47.96396, 2.89936], [-47.96231, 2.90238], [-47.95916, 2.90327], [-47.94896, 2.91248], [-47.931, 2.9312], [-47.92322, 2.93656], [-47.91678, 2.9442], [-47.90325, 2.95552]]}}, {"type": "Feature", "properties": {"FONTE_CAMADA": "Sísmica 2D pública — ANP (Disponíveis)", "Interpret": "Nao iniciada", "OBJECTID": 109.0, "Shape_Leng": 0.0, "cmpnntGmId": 5.0, "district": "LANDMARK", "owtype": "Seis2DLine", "project": "NEOGENO_FOZAMAZONAS", "ss2dUqLnId": "0278-0151 ANP", "ssGmStId": 370, "ssGmStNm": "0278-0151 ANP", "subprj": "ALL_DATA"}, "geometry": {"type": "LineString", "coordinates": [[-48.17584, 2.89114], [-48.15423, 2.90693], [-48.08454, 2.97124], [-48.00144, 3.05028]]}}, {"type": "Feature", "properties": {"FONTE_CAMADA": "Sísmica 2D pública — ANP (Disponíveis)", "Interpret": "Nao iniciada", "OBJECTID": 110.0, "Shape_Leng": 0.0, "cmpnntGmId": 5.0, "district": "LANDMARK", "owtype": "Seis2DLine", "project": "NEOGENO_FOZAMAZONAS", "ss2dUqLnId": "0278-0167 ANP", "ssGmStId": 371, "ssGmStNm": "0278-0167 ANP", "subprj": "ALL_DATA"}, "geometry": {"type": "LineString", "coordinates": [[-48.3792, 3.09359], [-48.25595, 3.21166], [-48.21088, 3.25242]]}}, {"type": "Feature", "properties": {"FONTE_CAMADA": "Sísmica 2D pública — ANP (Disponíveis)", "Interpret": "Finalizada", "OBJECTID": 111.0, "Shape_Leng": 0.0, "cmpnntGmId": 5.0, "district": "LANDMARK", "owtype": "Seis2DLine", "project": "NEOGENO_FOZAMAZONAS", "ss2dUqLnId": "0278-0171 ANP", "ssGmStId": 372, "ssGmStNm": "0278-0171 ANP", "subprj": "ALL_DATA"}, "geometry": {"type": "LineString", "coordinates": [[-48.82076, 2.8026], [-48.79911, 2.81416], [-48.74747, 2.86056], [-48.63744, 2.96559], [-48.42298, 3.16411], [-48.34322, 3.24197], [-48.31464, 3.26731], [-48.26982, 3.3093]]}}, {"type": "Feature", "properties": {"FONTE_CAMADA": "Sísmica 2D pública — ANP (Disponíveis)", "Interpret": "Finalizada", "OBJECTID": 112.0, "Shape_Leng": 0.0, "cmpnntGmId": 5.0, "district": "LANDMARK", "owtype": "Seis2DLine", "project": "NEOGENO_FOZAMAZONAS", "ss2dUqLnId": "0278-0173 ANP", "ssGmStId": 373, "ssGmStNm": "0278-0173 ANP", "subprj": "ALL_DATA"}, "geometry": {"type": "LineString", "coordinates": [[-48.30151, 3.33988], [-48.4979, 3.15521], [-48.59718, 3.06494], [-48.74171, 2.92765], [-48.79199, 2.88214], [-48.80854, 2.86044]]}}, {"type": "Feature", "properties": {"FONTE_CAMADA": "Sísmica 2D pública — ANP (Disponíveis)", "Interpret": "Nao iniciada", "OBJECTID": 131.0, "Shape_Leng": 0.0, "cmpnntGmId": 5.0, "district": "LANDMARK", "owtype": "Seis2DLine", "project": "NEOGENO_FOZAMAZONAS", "ss2dUqLnId": "0270-1020 ANP", "ssGmStId": 349, "ssGmStNm": "0270-1020 ANP", "subprj": "ALL_DATA"}, "geometry": {"type": "LineString", "coordinates": [[-47.85033, 2.43072], [-47.62118, 2.68329]]}}, {"type": "Feature", "properties": {"FONTE_CAMADA": "Sísmica 2D pública — ANP (Disponíveis)", "Interpret": "Nao iniciada", "OBJECTID": 143.0, "Shape_Leng": 0.0, "cmpnntGmId": 5.0, "district": "LANDMARK", "owtype": "Seis2DLine", "project": "NEOGENO_FOZAMAZONAS", "ss2dUqLnId": "0500-0535 ANP", "ssGmStId": 403, "ssGmStNm": "0500-0535 ANP", "subprj": "ALL_DATA"}, "geometry": {"type": "LineString", "coordinates": [[-48.04926, 2.42299], [-48.03973, 2.43349], [-48.0327, 2.44255], [-47.98294, 2.50942], [-47.95069, 2.54954], [-47.94225, 2.56182], [-47.91246, 2.59816], [-47.89783, 2.61742], [-47.89309, 2.62605], [-47.88116, 2.64174], [-47.86974, 2.655], [-47.86463, 2.66263], [-47.86063, 2.66467], [-47.8491, 2.68276], [-47.84145, 2.69084], [-47.80504, 2.73889], [-47.79673, 2.75343], [-47.7986, 2.77033], [-47.79455, 2.77903], [-47.78007, 2.78407], [-47.7746, 2.78829], [-47.75322, 2.80202], [-47.74912, 2.80676]]}}, {"type": "Feature", "properties": {"FONTE_CAMADA": "Sísmica 2D pública — ANP (Disponíveis)", "Interpret": "Nao iniciada", "OBJECTID": 167.0, "Shape_Leng": 0.0, "cmpnntGmId": 5.0, "district": "LANDMARK", "owtype": "Seis2DLine", "project": "NEOGENO_FOZAMAZONAS", "ss2dUqLnId": "0501-0021 ANP", "ssGmStId": 427, "ssGmStNm": "0501-0021 ANP", "subprj": "ALL_DATA"}, "geometry": {"type": "LineString", "coordinates": [[-47.05312, 1.51696], [-46.99297, 1.59862], [-46.98209, 1.61866], [-46.97391, 1.62654], [-46.90624, 1.7546], [-46.89427, 1.76355], [-46.87989, 1.77386], [-46.85233, 1.80237], [-46.84648, 1.81277], [-46.83296, 1.84814], [-46.82694, 1.85627], [-46.79883, 1.88933], [-46.79865, 1.88945]]}}, {"type": "Feature", "properties": {"FONTE_CAMADA": "Sísmica 2D pública — ANP (Disponíveis)", "Interpret": "Nao iniciada", "OBJECTID": 169.0, "Shape_Leng": 0.0, "cmpnntGmId": 5.0, "district": "LANDMARK", "owtype": "Seis2DLine", "project": "NEOGENO_FOZAMAZONAS", "ss2dUqLnId": "0501-0022 ANP", "ssGmStId": 429, "ssGmStNm": "0501-0022 ANP", "subprj": "ALL_DATA"}, "geometry": {"type": "LineString", "coordinates": [[-47.5428, 2.31393], [-47.51729, 2.34973], [-47.50049, 2.37666], [-47.49507, 2.38261], [-47.47201, 2.40157], [-47.46903, 2.40599], [-47.43498, 2.43962], [-47.42937, 2.4489], [-47.418, 2.4649], [-47.40663, 2.47622]]}}, {"type": "Feature", "properties": {"FONTE_CAMADA": "Sísmica 2D pública — ANP (Disponíveis)", "Interpret": "Nao iniciada", "OBJECTID": 171.0, "Shape_Leng": 0.0, "cmpnntGmId": 5.0, "district": "LANDMARK", "owtype": "Seis2DLine", "project": "NEOGENO_FOZAMAZONAS", "ss2dUqLnId": "0501-0022B ANP", "ssGmStId": 431, "ssGmStNm": "0501-0022B ANP", "subprj": "ALL_DATA"}, "geometry": {"type": "LineString", "coordinates": [[-47.51646, 2.33297], [-47.54709, 2.30307], [-47.55588, 2.28456], [-47.56853, 2.26795], [-47.57225, 2.25999], [-47.58662, 2.24015], [-47.60201, 2.22202], [-47.63797, 2.16764]]}}, {"type": "Feature", "properties": {"FONTE_CAMADA": "Sísmica 2D pública — ANP (Disponíveis)", "Interpret": "Nao iniciada", "OBJECTID": 174.0, "Shape_Leng": 0.0, "cmpnntGmId": 5.0, "district": "LANDMARK", "owtype": "Seis2DLine", "project": "NEOGENO_FOZAMAZONAS", "ss2dUqLnId": "0501-0023B ANP", "ssGmStId": 434, "ssGmStNm": "0501-0023B ANP", "subprj": "ALL_DATA"}, "geometry": {"type": "LineString", "coordinates": [[-48.10822, 3.15334], [-48.13451, 3.117], [-48.14945, 3.09551], [-48.16654, 3.06775], [-48.18045, 3.03841], [-48.18367, 3.02589], [-48.20454, 2.98026], [-48.2264, 2.96262], [-48.25285, 2.94974], [-48.25537, 2.94674], [-48.26538, 2.92965], [-48.30345, 2.87626], [-48.31579, 2.85239], [-48.32834, 2.81786], [-48.36198, 2.76931]]}}, {"type": "Feature", "properties": {"FONTE_CAMADA": "Sísmica 2D pública — ANP (Disponíveis)", "Interpret": "Nao iniciada", "OBJECTID": 176.0, "Shape_Leng": 0.0, "cmpnntGmId": 5.0, "district": "LANDMARK", "owtype": "Seis2DLine", "project": "NEOGENO_FOZAMAZONAS", "ss2dUqLnId": "0033-0002 ANP", "ssGmStId": 217, "ssGmStNm": "0033-0002 ANP", "subprj": "ALL_DATA"}, "geometry": {"type": "LineString", "coordinates": [[-48.50297, 2.15288], [-48.49295, 2.14447], [-48.48147, 2.12549], [-48.47183, 2.11266], [-48.45239, 2.08285], [-48.43796, 2.06424], [-48.41801, 2.03236], [-48.36369, 1.95231], [-48.35065, 1.93452], [-48.34426, 1.92386], [-48.22248, 1.74304], [-48.18333, 1.6849], [-48.16069, 1.65333], [-48.12856, 1.60372], [-48.11675, 1.58817], [-48.10389, 1.5665], [-48.08998, 1.54849], [-48.0788, 1.53033], [-48.04704, 1.4829], [-48.02679, 1.45526], [-47.99444, 1.40536], [-47.98331, 1.39088], [-47.97641, 1.3795], [-47.73833, 1.02729]]}}, {"type": "Feature", "properties": {"FONTE_CAMADA": "Sísmica 2D pública — ANP (Disponíveis)", "Interpret": "Nao iniciada", "OBJECTID": 177.0, "Shape_Leng": 0.0, "cmpnntGmId": 5.0, "district": "LANDMARK", "owtype": "Seis2DLine", "project": "NEOGENO_FOZAMAZONAS", "ss2dUqLnId": "0033-0027 ANP", "ssGmStId": 218, "ssGmStNm": "0033-0027 ANP", "subprj": "ALL_DATA"}, "geometry": {"type": "LineString", "coordinates": [[-47.93676, 0.83657], [-48.3242, 1.41237], [-48.43977, 1.58551], [-48.46997, 1.62677], [-48.48276, 1.64919], [-48.65832, 1.91094], [-48.69784, 1.96836], [-48.70954, 1.97886], [-48.72428, 1.98924], [-48.74776, 2.01141], [-48.76383, 2.02253], [-48.88577, 2.12745], [-48.92301, 2.15743], [-48.9387, 2.17239], [-48.95428, 2.18454], [-48.97692, 2.20436], [-49.07626, 2.28677], [-49.12415, 2.32854], [-49.14484, 2.34425], [-49.16969, 2.36689], [-49.18548, 2.37854]]}}, {"type": "Feature", "properties": {"FONTE_CAMADA": "Sísmica 2D pública — ANP (Disponíveis)", "Interpret": "Nao iniciada", "OBJECTID": 178.0, "Shape_Leng": 0.0, "cmpnntGmId": 5.0, "district": "LANDMARK", "owtype": "Seis2DLine", "project": "NEOGENO_FOZAMAZONAS", "ss2dUqLnId": "0034-0363 ANP", "ssGmStId": 219, "ssGmStNm": "0034-0363 ANP", "subprj": "ALL_DATA"}, "geometry": {"type": "LineString", "coordinates": [[-48.74181, 2.84453], [-48.73871, 2.84193], [-48.7398, 2.84284], [-48.73776, 2.84111], [-48.42221, 2.57433], [-48.40788, 2.56147], [-48.018, 2.23101]]}}, {"type": "Feature", "properties": {"FONTE_CAMADA": "Sísmica 2D pública — ANP (Disponíveis)", "Interpret": "Nao iniciada", "OBJECTID": 179.0, "Shape_Leng": 0.0, "cmpnntGmId": 5.0, "district": "LANDMARK", "owtype": "Seis2DLine", "project": "NEOGENO_FOZAMAZONAS", "ss2dUqLnId": "0034-0363 TOTAL", "ssGmStId": 220, "ssGmStNm": "0034-0363 TOTAL", "subprj": "ALL_DATA"}, "geometry": {"type": "LineString", "coordinates": [[-48.73218, 2.83637], [-48.52419, 2.65952], [-48.42481, 2.57607], [-48.41989, 2.57259], [-48.41071, 2.56407], [-48.22668, 2.40721], [-48.18256, 2.37071], [-48.17212, 2.36104], [-48.018, 2.23093]]}}, {"type": "Feature", "properties": {"FONTE_CAMADA": "Sísmica 2D pública — ANP (Disponíveis)", "Interpret": "Nao iniciada", "OBJECTID": 180.0, "Shape_Leng": 0.0, "cmpnntGmId": 5.0, "district": "LANDMARK", "owtype": "Seis2DLine", "project": "NEOGENO_FOZAMAZONAS", "ss2dUqLnId": "0034-0365 ANP", "ssGmStId": 221, "ssGmStNm": "0034-0365 ANP", "subprj": "ALL_DATA"}, "geometry": {"type": "LineString", "coordinates": [[-48.78396, 2.35018], [-48.78096, 2.35288], [-48.78193, 2.35199], [-48.78026, 2.35345], [-48.72697, 2.39923], [-48.7072, 2.41767], [-48.56359, 2.5428], [-48.53342, 2.57058], [-48.52165, 2.57968], [-48.50941, 2.59172], [-48.49281, 2.60466], [-48.43641, 2.65611], [-48.40865, 2.67897], [-48.38272, 2.70363], [-48.36847, 2.71461], [-48.34818, 2.73382], [-48.32833, 2.75032], [-48.31111, 2.76693], [-48.28659, 2.78654], [-48.25366, 2.81761], [-48.22056, 2.84434], [-48.20815, 2.85696], [-48.09852, 2.95199]]}}, {"type": "Feature", "properties": {"FONTE_CAMADA": "Sísmica 2D pública — ANP (Disponíveis)", "Interpret": "Em interpretacao", "OBJECTID": 181.0, "Shape_Leng": 0.0, "cmpnntGmId": 5.0, "district": "LANDMARK", "owtype": "Seis2DLine", "project": "NEOGENO_FOZAMAZONAS", "ss2dUqLnId": "0034-0366 ANP", "ssGmStId": 222, "ssGmStNm": "0034-0366 ANP", "subprj": "ALL_DATA"}, "geometry": {"type": "LineString", "coordinates": [[-49.12499, 2.64872], [-49.12417, 2.64953], [-49.12272, 2.65081], [-49.12161, 2.65178], [-49.12111, 2.65229], [-49.1206, 2.65278], [-49.1201, 2.65329], [-49.11959, 2.6538], [-49.11909, 2.6543], [-49.11858, 2.6548], [-49.11807, 2.65531], [-49.11651, 2.65665], [-49.11431, 2.65858], [-49.11183, 2.66086], [-49.106, 2.66606], [-49.10298, 2.66856], [-49.0869, 2.68312], [-49.08504, 2.68494], [-49.08287, 2.68711], [-49.08156, 2.68839], [-49.08106, 2.68884], [-49.07994, 2.69003], [-49.0772, 2.69209], [-49.07636, 2.69281], [-49.07597, 2.69317], [-49.07575, 2.69338], [-49.07553, 2.69359], [-49.06944, 2.69888], [-49.06807, 2.70003], [-49.06541, 2.70249], [-49.06006, 2.70744], [-49.05889, 2.70843], [-49.04326, 2.72261], [-49.03995, 2.72553], [-49.03635, 2.72876], [-49.02747, 2.7369], [-49.01806, 2.74543], [-49.01533, 2.74788], [-49.01449, 2.74856], [-49.01364, 2.74923], [-49.00884, 2.75375], [-49.0019, 2.76008], [-48.99857, 2.76312], [-48.99584, 2.76544], [-48.98343, 2.7762], [-48.98123, 2.77807], [-48.98005, 2.77904], [-48.97323, 2.78515], [-48.96734, 2.79065], [-48.96538, 2.79257], [-48.96346, 2.79458], [-48.9574, 2.79973], [-48.95123, 2.80506], [-48.94777, 2.80852], [-48.94496, 2.81103], [-48.94312, 2.81281], [-48.94015, 2.8155], [-48.93163, 2.82357], [-48.92963, 2.82542], [-48.92696, 2.82782], [-48.91738, 2.8359], [-48.91417, 2.83878], [-48.91001, 2.84244], [-48.90251, 2.8488], [-48.90119, 2.85008], [-48.88875, 2.86131], [-48.88102, 2.86798], [-48.87637, 2.87253], [-48.87485, 2.87378], [-48.8733, 2.87511], [-48.87162, 2.87642], [-48.86624, 2.88167], [-48.8647, 2.88327], [-48.8635, 2.88442], [-48.85593, 2.89143], [-48.85454, 2.89276], [-48.84225, 2.90315], [-48.83417, 2.91033], [-48.83135, 2.91243], [-48.81674, 2.92598], [-48.80671, 2.93576], [-48.80272, 2.93931], [-48.80061, 2.94128], [-48.79971, 2.94209], [-48.79914, 2.94258], [-48.79856, 2.94307], [-48.79759, 2.94395], [-48.79656, 2.94489], [-48.79508, 2.94611], [-48.79313, 2.94762], [-48.79173, 2.94884], [-48.79056, 2.94985], [-48.7894, 2.95087], [-48.78823, 2.95189], [-48.78706, 2.95291], [-48.78621, 2.95366], [-48.78537, 2.95439], [-48.78454, 2.95511], [-48.78358, 2.95594], [-48.78257, 2.95681], [-48.78157, 2.95768], [-48.78081, 2.95833], [-48.77281, 2.96551], [-48.76612, 2.97188], [-48.76343, 2.97485], [-48.76019, 2.97753], [-48.75414, 2.98347], [-48.74549, 2.98944], [-48.74429, 2.99095], [-48.7424, 2.99265], [-48.7405, 2.99435], [-48.73458, 3.00001], [-48.7281, 3.00582], [-48.72644, 3.00733], [-48.7238, 3.00994], [-48.72162, 3.01177], [-48.72018, 3.01313], [-48.71906, 3.01424], [-48.71795, 3.01535], [-48.70307, 3.02836], [-48.69901, 3.03252], [-48.69815, 3.033], [-48.68922, 3.04012], [-48.68677, 3.04285], [-48.68595, 3.04365], [-48.68543, 3.04421], [-48.68275, 3.04662], [-48.67906, 3.0509], [-48.66645, 3.06064], [-48.66522, 3.0621], [-48.66399, 3.06287], [-48.66173, 3.06522], [-48.65345, 3.07352], [-48.65133, 3.07513], [-48.64777, 3.07811], [-48.64378, 3.0814], [-48.6414, 3.08364], [-48.63988, 3.08527], [-48.63845, 3.08627], [-48.63314, 3.0915], [-48.63211, 3.09261], [-48.62461, 3.09936], [-48.6229, 3.10065], [-48.61651, 3.10652], [-48.60483, 3.11619]]}}, {"type": "Feature", "properties": {"FONTE_CAMADA": "Sísmica 2D pública — ANP (Disponíveis)", "Interpret": "Em interpretacao", "OBJECTID": 185.0, "Shape_Leng": 0.0, "cmpnntGmId": 5.0, "district": "LANDMARK", "owtype": "Seis2DLine", "project": "NEOGENO_FOZAMAZONAS", "ss2dUqLnId": "0034-0376 ANP", "ssGmStId": 226, "ssGmStNm": "0034-0376 ANP", "subprj": "ALL_DATA"}, "geometry": {"type": "LineString", "coordinates": [[-48.61955, 2.82736], [-48.82677, 3.00503], [-48.83999, 3.02006], [-48.85848, 3.03604], [-48.95611, 3.11518], [-49.09366, 3.232]]}}, {"type": "Feature", "properties": {"FONTE_CAMADA": "Sísmica 2D pública — ANP (Disponíveis)", "Interpret": "Nao iniciada", "OBJECTID": 186.0, "Shape_Leng": 0.0, "cmpnntGmId": 5.0, "district": "LANDMARK", "owtype": "Seis2DLine", "project": "NEOGENO_FOZAMAZONAS", "ss2dUqLnId": "0038-0320 ANP", "ssGmStId": 227, "ssGmStNm": "0038-0320 ANP", "subprj": "ALL_DATA"}, "geometry": {"type": "LineString", "coordinates": [[-48.97128, 3.33868], [-48.95458, 3.32352], [-48.91629, 3.29203], [-48.88696, 3.26564], [-48.86337, 3.24705], [-48.84738, 3.23254], [-48.7715, 3.1698], [-48.75288, 3.15237], [-48.73848, 3.14186], [-48.70126, 3.10902], [-48.65981, 3.07508], [-48.65115, 3.06627], [-48.62362, 3.04405], [-48.61672, 3.03663], [-48.56942, 2.99874], [-48.53951, 2.97166], [-48.51627, 2.9543], [-48.49674, 2.93733], [-48.48412, 2.92456], [-48.45862, 2.90609], [-48.43816, 2.88642], [-48.42399, 2.87613], [-48.41161, 2.86409], [-48.39851, 2.85458], [-48.35991, 2.82211], [-48.35434, 2.81617], [-48.23515, 2.71711], [-48.21383, 2.6983], [-47.69124, 2.24982]]}}, {"type": "Feature", "properties": {"FONTE_CAMADA": "Sísmica 2D pública — ANP (Disponíveis)", "Interpret": "Em interpretacao", "OBJECTID": 187.0, "Shape_Leng": 0.0, "cmpnntGmId": 5.0, "district": "LANDMARK", "owtype": "Seis2DLine", "project": "NEOGENO_FOZAMAZONAS", "ss2dUqLnId": "0038-0334 ANP", "ssGmStId": 228, "ssGmStNm": "0038-0334 ANP", "subprj": "ALL_DATA"}, "geometry": {"type": "LineString", "coordinates": [[-49.51368, 2.61654], [-49.30637, 2.79656], [-49.20108, 2.89098], [-49.00403, 3.06279], [-48.96731, 3.09724], [-48.8973, 3.15637], [-48.8792, 3.1736], [-48.80947, 3.2332], [-48.7955, 3.24696], [-48.7721, 3.26654], [-48.76596, 3.27353], [-48.7563, 3.27993], [-48.73582, 3.29838]]}}, {"type": "Feature", "properties": {"FONTE_CAMADA": "Sísmica 2D pública — ANP (Disponíveis)", "Interpret": "Nao iniciada", "OBJECTID": 188.0, "Shape_Leng": 0.0, "cmpnntGmId": 5.0, "district": "LANDMARK", "owtype": "Seis2DLine", "project": "NEOGENO_FOZAMAZONAS", "ss2dUqLnId": "0038-0337 ANP", "ssGmStId": 229, "ssGmStNm": "0038-0337 ANP", "subprj": "ALL_DATA"}, "geometry": {"type": "LineString", "coordinates": [[-49.02986, 3.28761], [-48.80845, 3.09842], [-48.79653, 3.0862], [-48.78598, 3.08027], [-48.76893, 3.06358], [-48.76316, 3.06007], [-48.74125, 3.04125], [-48.73675, 3.03925], [-48.72, 3.02153], [-48.69914, 3.00837], [-48.68236, 2.9881], [-48.67811, 2.98667], [-48.67307, 2.98179], [-48.66787, 2.97914], [-48.65117, 2.96274], [-48.64874, 2.96233], [-48.63324, 2.94778], [-48.61342, 2.93339], [-48.59797, 2.91728], [-48.58105, 2.90466], [-48.56304, 2.8885], [-48.55748, 2.8855], [-48.54103, 2.86984], [-48.52307, 2.85777], [-48.50931, 2.84328], [-48.49542, 2.83349], [-48.47215, 2.81195], [-48.45216, 2.79655], [-48.43822, 2.78278], [-48.33192, 2.69425], [-48.32544, 2.68601], [-48.30255, 2.66997], [-48.24319, 2.61956], [-48.24153, 2.61804], [-48.23988, 2.61652], [-48.2382, 2.61504], [-48.23649, 2.6136], [-48.23478, 2.61216], [-48.23307, 2.6107], [-48.23137, 2.60924], [-48.22967, 2.60776], [-48.22798, 2.60626], [-48.22629, 2.60476], [-48.22459, 2.60327], [-48.22289, 2.60178], [-48.2212, 2.60028], [-48.2195, 2.59879], [-48.2178, 2.5973], [-48.21612, 2.59577], [-48.17831, 2.56309], [-48.17551, 2.56074], [-48.17274, 2.55839], [-48.17007, 2.55596], [-48.16744, 2.55351], [-48.16514, 2.55141], [-48.16313, 2.54979], [-48.16071, 2.54788], [-48.15794, 2.54541], [-48.15516, 2.54296], [-48.15273, 2.54086], [-48.15028, 2.53878], [-48.14782, 2.53671], [-48.14541, 2.53461], [-48.14335, 2.5329], [-48.14129, 2.53119], [-48.13922, 2.52948], [-48.13717, 2.52777], [-48.13512, 2.52611], [-48.13306, 2.5245], [-48.13103, 2.52269], [-48.12901, 2.52088], [-48.12698, 2.51908], [-48.12496, 2.51727], [-48.12293, 2.51546], [-48.12124, 2.51396], [-48.11955, 2.51245], [-48.11787, 2.51094], [-48.11619, 2.50942], [-48.11452, 2.5079], [-48.11284, 2.50638], [-48.11112, 2.50495], [-48.10941, 2.50352], [-48.06601, 2.46604], [-47.97088, 2.38404]]}}, {"type": "Feature", "properties": {"FONTE_CAMADA": "Sísmica 2D pública — ANP (Disponíveis)", "Interpret": "Nao iniciada", "OBJECTID": 189.0, "Shape_Leng": 0.0, "cmpnntGmId": 5.0, "district": "LANDMARK", "owtype": "Seis2DLine", "project": "NEOGENO_FOZAMAZONAS", "ss2dUqLnId": "0038-0337 TOTAL", "ssGmStId": 230, "ssGmStNm": "0038-0337 TOTAL", "subprj": "ALL_DATA"}, "geometry": {"type": "LineString", "coordinates": [[-49.02962, 3.28782], [-48.79282, 3.08627], [-48.68578, 2.9928], [-48.61307, 2.93338], [-48.51259, 2.84697], [-48.23851, 2.61586], [-48.0589, 2.46076], [-47.97112, 2.38534]]}}, {"type": "Feature", "properties": {"FONTE_CAMADA": "Sísmica 2D pública — ANP (Disponíveis)", "Interpret": "Nao iniciada", "OBJECTID": 190.0, "Shape_Leng": 0.0, "cmpnntGmId": 5.0, "district": "LANDMARK", "owtype": "Seis2DLine", "project": "NEOGENO_FOZAMAZONAS", "ss2dUqLnId": "0038-0337", "ssGmStId": 231, "ssGmStNm": "0038-0337", "subprj": "ALL_DATA"}, "geometry": {"type": "LineString", "coordinates": [[-48.69909, 3.00417], [-48.68813, 2.99504], [-48.68236, 2.98825], [-48.6785, 2.98693], [-48.6731, 2.98179], [-48.66861, 2.97965], [-48.65122, 2.96276], [-48.64953, 2.9627], [-48.63328, 2.94779], [-48.61344, 2.93342], [-48.59767, 2.91698], [-48.58075, 2.9044], [-48.5629, 2.88836], [-48.55717, 2.8852], [-48.54105, 2.86984], [-48.52245, 2.85711], [-48.50936, 2.84328], [-48.49514, 2.83312], [-48.47219, 2.81195], [-48.45252, 2.79684], [-48.43789, 2.78251], [-48.33161, 2.69396], [-48.32494, 2.6856], [-48.30258, 2.66998], [-48.24511, 2.62119], [-47.97177, 2.38476]]}}, {"type": "Feature", "properties": {"FONTE_CAMADA": "Sísmica 2D pública — ANP (Disponíveis)", "Interpret": "Nao iniciada", "OBJECTID": 191.0, "Shape_Leng": 0.0, "cmpnntGmId": 5.0, "district": "LANDMARK", "owtype": "Seis2DLine", "project": "NEOGENO_FOZAMAZONAS", "ss2dUqLnId": "0038-0341", "ssGmStId": 232, "ssGmStNm": "0038-0341", "subprj": "ALL_DATA"}, "geometry": {"type": "LineString", "coordinates": [[-48.43005, 3.1738], [-48.43881, 3.18124], [-48.4493, 3.19102], [-48.46776, 3.20725], [-48.48745, 3.21978], [-48.4973, 3.2277], [-48.52913, 3.26037], [-48.54396, 3.27146], [-48.56156, 3.28197], [-48.56847, 3.28754], [-48.60138, 3.32005], [-48.63585, 3.34416], [-48.70275, 3.40503], [-48.72583, 3.42407], [-48.76816, 3.45523], [-48.80055, 3.48753]]}}, {"type": "Feature", "properties": {"FONTE_CAMADA": "Sísmica 2D pública — ANP (Disponíveis)", "Interpret": "Em interpretacao", "OBJECTID": 193.0, "Shape_Leng": 0.0, "cmpnntGmId": 5.0, "district": "LANDMARK", "owtype": "Seis2DLine", "project": "NEOGENO_FOZAMAZONAS", "ss2dUqLnId": "0038-0378 ANP", "ssGmStId": 234, "ssGmStNm": "0038-0378 ANP", "subprj": "ALL_DATA"}, "geometry": {"type": "LineString", "coordinates": [[-49.50088, 2.85924], [-49.30387, 2.69273], [-49.23131, 2.63303], [-49.22041, 2.62345], [-49.21869, 2.62013], [-49.15874, 2.57141], [-49.14319, 2.55656], [-49.08652, 2.5111], [-49.04853, 2.47617], [-49.04359, 2.47275], [-49.02119, 2.45532], [-49.00539, 2.43821], [-48.88939, 2.34157], [-48.74651, 2.22083], [-48.70998, 2.1886], [-48.67053, 2.1569], [-48.63834, 2.12921], [-48.63501, 2.12638], [-48.55018, 2.05298]]}}, {"type": "Feature", "properties": {"FONTE_CAMADA": "Sísmica 2D pública — ANP (Disponíveis)", "Interpret": "Em interpretacao", "OBJECTID": 194.0, "Shape_Leng": 0.0, "cmpnntGmId": 5.0, "district": "LANDMARK", "owtype": "Seis2DLine", "project": "NEOGENO_FOZAMAZONAS", "ss2dUqLnId": "0038-0382 ANP", "ssGmStId": 235, "ssGmStNm": "0038-0382 ANP", "subprj": "ALL_DATA"}, "geometry": {"type": "LineString", "coordinates": [[-49.38242, 2.52334], [-49.3698, 2.53641], [-49.3442, 2.55937], [-49.33019, 2.57009], [-49.25527, 2.63563], [-49.23948, 2.65098], [-49.18485, 2.69751], [-49.16564, 2.7157], [-49.01167, 2.85026]]}}, {"type": "Feature", "properties": {"FONTE_CAMADA": "Sísmica 2D pública — ANP (Disponíveis)", "Interpret": "Nao iniciada", "OBJECTID": 195.0, "Shape_Leng": 0.0, "cmpnntGmId": 5.0, "district": "LANDMARK", "owtype": "Seis2DLine", "project": "NEOGENO_FOZAMAZONAS", "ss2dUqLnId": "0038-0384 ANP", "ssGmStId": 236, "ssGmStNm": "0038-0384 ANP", "subprj": "ALL_DATA"}, "geometry": {"type": "LineString", "coordinates": [[-48.52945, 2.70812], [-48.45141, 2.78171], [-48.37493, 2.85094], [-48.35652, 2.86963], [-48.34088, 2.88251], [-48.29868, 2.92208], [-48.26381, 2.95267], [-48.25929, 2.95842], [-48.24441, 2.97106], [-48.24036, 2.97683], [-48.23787, 2.97734], [-48.17121, 3.04072], [-48.10837, 3.09668], [-48.10484, 3.10139], [-48.09905, 3.10511], [-48.08266, 3.12187], [-48.0788, 3.12495]]}}, {"type": "Feature", "properties": {"FONTE_CAMADA": "Sísmica 2D pública — ANP (Disponíveis)", "Interpret": "Nao iniciada", "OBJECTID": 196.0, "Shape_Leng": 0.0, "cmpnntGmId": 5.0, "district": "LANDMARK", "owtype": "Seis2DLine", "project": "NEOGENO_FOZAMAZONAS", "ss2dUqLnId": "0038-0384", "ssGmStId": 237, "ssGmStNm": "0038-0384", "subprj": "ALL_DATA"}, "geometry": {"type": "LineString", "coordinates": [[-48.50864, 2.72789], [-48.27177, 2.9457], [-48.19509, 3.01804], [-48.10528, 3.09946], [-48.07862, 3.12477]]}}, {"type": "Feature", "properties": {"FONTE_CAMADA": "Sísmica 2D pública — ANP (Disponíveis)", "Interpret": "Nao iniciada", "OBJECTID": 199.0, "Shape_Leng": 0.0, "cmpnntGmId": 5.0, "district": "LANDMARK", "owtype": "Seis2DLine", "project": "NEOGENO_FOZAMAZONAS", "ss2dUqLnId": "0038-0758 ANP", "ssGmStId": 240, "ssGmStNm": "0038-0758 ANP", "subprj": "ALL_DATA"}, "geometry": {"type": "LineString", "coordinates": [[-47.90978, 2.96182], [-48.02726, 3.06165], [-48.47121, 3.44159], [-48.52457, 3.48433], [-48.56756, 3.5227], [-48.58389, 3.53572], [-48.65618, 3.59781], [-48.66517, 3.60555]]}}, {"type": "Feature", "properties": {"FONTE_CAMADA": "Sísmica 2D pública — ANP (Disponíveis)", "Interpret": "Nao iniciada", "OBJECTID": 204.0, "Shape_Leng": 0.0, "cmpnntGmId": 5.0, "district": "LANDMARK", "owtype": "Seis2DLine", "project": "NEOGENO_FOZAMAZONAS", "ss2dUqLnId": "0044-0041 ANP", "ssGmStId": 245, "ssGmStNm": "0044-0041 ANP", "subprj": "ALL_DATA"}, "geometry": {"type": "LineString", "coordinates": [[-48.82227, 3.46859], [-48.53686, 3.22458], [-48.5153, 3.20879], [-48.50171, 3.19501], [-48.46873, 3.16627], [-48.10365, 2.85703], [-48.0765, 2.83235], [-47.9221, 2.70034], [-47.75564, 2.55858]]}}, {"type": "Feature", "properties": {"FONTE_CAMADA": "Sísmica 2D pública — ANP (Disponíveis)", "Interpret": "Nao iniciada", "OBJECTID": 205.0, "Shape_Leng": 0.0, "cmpnntGmId": 5.0, "district": "LANDMARK", "owtype": "Seis2DLine", "project": "NEOGENO_FOZAMAZONAS", "ss2dUqLnId": "0044-0041", "ssGmStId": 246, "ssGmStNm": "0044-0041", "subprj": "ALL_DATA"}, "geometry": {"type": "LineString", "coordinates": [[-48.57166, 3.25812], [-48.54108, 3.23186], [-48.51969, 3.21571], [-48.46931, 3.17087], [-48.26514, 2.99826], [-47.95261, 2.73066]]}}, {"type": "Feature", "properties": {"FONTE_CAMADA": "Sísmica 2D pública — ANP (Disponíveis)", "Interpret": "Nao iniciada", "OBJECTID": 206.0, "Shape_Leng": 0.0, "cmpnntGmId": 5.0, "district": "LANDMARK", "owtype": "Seis2DLine", "project": "NEOGENO_FOZAMAZONAS", "ss2dUqLnId": "0044-0046 ANP", "ssGmStId": 247, "ssGmStNm": "0044-0046 ANP", "subprj": "ALL_DATA"}, "geometry": {"type": "MultiLineString", "coordinates": [[[-48.68561, 3.42508], [-48.68411, 3.42383]], [[-48.68411, 3.42383], [-48.68059, 3.4209], [-48.68412, 3.42384], [-48.68411, 3.42383]], [[-48.68411, 3.42383], [-48.68372, 3.42347], [-48.60101, 3.35446], [-48.58702, 3.34038], [-48.39079, 3.1723], [-48.27268, 3.06935], [-48.23084, 3.03527], [-48.0469, 2.87845], [-47.91994, 2.76568], [-47.88378, 2.73661], [-47.72926, 2.60267]]]}}, {"type": "Feature", "properties": {"FONTE_CAMADA": "Sísmica 2D pública — ANP (Disponíveis)", "Interpret": "Nao iniciada", "OBJECTID": 207.0, "Shape_Leng": 0.0, "cmpnntGmId": 5.0, "district": "LANDMARK", "owtype": "Seis2DLine", "project": "NEOGENO_FOZAMAZONAS", "ss2dUqLnId": "0044-0046", "ssGmStId": 248, "ssGmStNm": "0044-0046", "subprj": "ALL_DATA"}, "geometry": {"type": "LineString", "coordinates": [[-48.56861, 3.32539], [-48.46034, 3.23244], [-48.27195, 3.06977], [-48.04947, 2.88119], [-47.9204, 2.76687], [-47.89782, 2.74926], [-47.72933, 2.60343]]}}, {"type": "Feature", "properties": {"FONTE_CAMADA": "Sísmica 2D pública — ANP (Disponíveis)", "Interpret": "Nao iniciada", "OBJECTID": 208.0, "Shape_Leng": 0.0, "cmpnntGmId": 5.0, "district": "LANDMARK", "owtype": "Seis2DLine", "project": "NEOGENO_FOZAMAZONAS", "ss2dUqLnId": "0044-0049 ANP", "ssGmStId": 249, "ssGmStNm": "0044-0049 ANP", "subprj": "ALL_DATA"}, "geometry": {"type": "LineString", "coordinates": [[-48.66975, 2.02432], [-48.61744, 2.07206], [-48.41946, 2.24424], [-48.40699, 2.25846], [-48.37643, 2.28509], [-48.35589, 2.30351], [-48.355, 2.30438], [-48.30886, 2.34654], [-48.30626, 2.34699], [-48.28846, 2.36519], [-48.25496, 2.3917], [-48.24972, 2.39768], [-48.22357, 2.41882], [-48.16457, 2.47359]]}}, {"type": "Feature", "properties": {"FONTE_CAMADA": "Sísmica 2D pública — ANP (Disponíveis)", "Interpret": "Nao iniciada", "OBJECTID": 209.0, "Shape_Leng": 0.0, "cmpnntGmId": 5.0, "district": "LANDMARK", "owtype": "Seis2DLine", "project": "NEOGENO_FOZAMAZONAS", "ss2dUqLnId": "0044-0051", "ssGmStId": 250, "ssGmStNm": "0044-0051", "subprj": "ALL_DATA"}, "geometry": {"type": "LineString", "coordinates": [[-48.5205, 2.46382], [-48.48579, 2.43594], [-48.47696, 2.42826], [-48.46938, 2.42158], [-48.4456, 2.39923], [-48.42346, 2.38194], [-48.38497, 2.34762], [-48.37408, 2.33957], [-48.35575, 2.32388], [-48.2948, 2.2713], [-48.27512, 2.25238], [-48.24222, 2.22634], [-48.10249, 2.10691]]}}, {"type": "Feature", "properties": {"FONTE_CAMADA": "Sísmica 2D pública — ANP (Disponíveis)", "Interpret": "Nao iniciada", "OBJECTID": 211.0, "Shape_Leng": 0.0, "cmpnntGmId": 5.0, "district": "LANDMARK", "owtype": "Seis2DLine", "project": "NEOGENO_FOZAMAZONAS", "ss2dUqLnId": "0044-0066 ANP", "ssGmStId": 252, "ssGmStNm": "0044-0066 ANP", "subprj": "ALL_DATA"}, "geometry": {"type": "LineString", "coordinates": [[-49.04182, 3.11348], [-49.01277, 3.1379], [-48.97734, 3.17052], [-48.97618, 3.17293], [-48.94004, 3.20265], [-48.88927, 3.24752], [-48.87839, 3.25859], [-48.8337, 3.2969], [-48.82459, 3.30644], [-48.77978, 3.34446], [-48.76797, 3.35627], [-48.74309, 3.3762], [-48.71019, 3.40763], [-48.6866, 3.42672], [-48.67455, 3.43846], [-48.56332, 3.53567], [-48.54366, 3.5543]]}}, {"type": "Feature", "properties": {"FONTE_CAMADA": "Sísmica 2D pública — ANP (Disponíveis)", "Interpret": "Nao iniciada", "OBJECTID": 213.0, "Shape_Leng": 0.0, "cmpnntGmId": 5.0, "district": "LANDMARK", "owtype": "Seis2DLine", "project": "NEOGENO_FOZAMAZONAS", "ss2dUqLnId": "0044-0079 ANP", "ssGmStId": 254, "ssGmStNm": "0044-0079 ANP", "subprj": "ALL_DATA"}, "geometry": {"type": "LineString", "coordinates": [[-48.38904, 2.88091], [-48.45125, 2.82211], [-48.48857, 2.79309], [-48.63103, 2.66452], [-48.66508, 2.63597], [-48.72963, 2.57582], [-48.77407, 2.53771], [-48.77706, 2.53301], [-48.82143, 2.49861], [-48.85041, 2.47262], [-48.90184, 2.42301], [-48.92121, 2.40717]]}}, {"type": "Feature", "properties": {"FONTE_CAMADA": "Sísmica 2D pública — ANP (Disponíveis)", "Interpret": "Nao iniciada", "OBJECTID": 214.0, "Shape_Leng": 0.0, "cmpnntGmId": 5.0, "district": "LANDMARK", "owtype": "Seis2DLine", "project": "NEOGENO_FOZAMAZONAS", "ss2dUqLnId": "0044-0080 ANP", "ssGmStId": 255, "ssGmStNm": "0044-0080 ANP", "subprj": "ALL_DATA"}, "geometry": {"type": "MultiLineString", "coordinates": [[[-48.90022, 2.06764], [-48.89805, 2.06952]], [[-48.89805, 2.06952], [-48.89715, 2.07031], [-48.89811, 2.06947], [-48.89805, 2.06952]], [[-48.89805, 2.06952], [-48.87551, 2.09114], [-48.77688, 2.17438], [-48.72164, 2.22608], [-48.72006, 2.22436], [-48.71035, 2.23242], [-48.62007, 2.31045], [-48.56101, 2.36372], [-48.54343, 2.37721], [-48.52278, 2.39637], [-48.4933, 2.42076], [-48.48997, 2.42516], [-48.46896, 2.44211], [-48.44493, 2.46553], [-48.43349, 2.47336], [-48.39789, 2.50575], [-48.3839, 2.51658], [-48.35842, 2.5402], [-48.279, 2.6086]]]}}, {"type": "Feature", "properties": {"FONTE_CAMADA": "Sísmica 2D pública — ANP (Disponíveis)", "Interpret": "Nao iniciada", "OBJECTID": 215.0, "Shape_Leng": 0.0, "cmpnntGmId": 5.0, "district": "LANDMARK", "owtype": "Seis2DLine", "project": "NEOGENO_FOZAMAZONAS", "ss2dUqLnId": "0044-0109 ANP", "ssGmStId": 256, "ssGmStNm": "0044-0109 ANP", "subprj": "ALL_DATA"}, "geometry": {"type": "LineString", "coordinates": [[-49.58607, 2.80272], [-49.56683, 2.7865], [-49.54456, 2.76594], [-49.45254, 2.68774]]}}, {"type": "Feature", "properties": {"FONTE_CAMADA": "Sísmica 2D pública — ANP (Disponíveis)", "Interpret": "Nao iniciada", "OBJECTID": 236.0, "Shape_Leng": 0.0, "cmpnntGmId": 5.0, "district": "LANDMARK", "owtype": "Seis2DLine", "project": "NEOGENO_FOZAMAZONAS", "ss2dUqLnId": "BA-133001C", "ssGmStId": 452, "ssGmStNm": "BA-133001C", "subprj": "ALL_DATA"}, "geometry": {"type": "LineString", "coordinates": [[-48.5629, 3.28567], [-48.40044, 3.43536]]}}, {"type": "Feature", "properties": {"FONTE_CAMADA": "Sísmica 2D pública — ANP (Disponíveis)", "Interpret": "Nao iniciada", "OBJECTID": 237.0, "Shape_Leng": 0.0, "cmpnntGmId": 5.0, "district": "LANDMARK", "owtype": "Seis2DLine", "project": "NEOGENO_FOZAMAZONAS", "ss2dUqLnId": "BA-133801", "ssGmStId": 453, "ssGmStNm": "BA-133801", "subprj": "ALL_DATA"}, "geometry": {"type": "LineString", "coordinates": [[-48.4344, 3.46814], [-48.61345, 3.30072]]}}, {"type": "Feature", "properties": {"FONTE_CAMADA": "Sísmica 2D pública — ANP (Disponíveis)", "Interpret": "Nao iniciada", "OBJECTID": 238.0, "Shape_Leng": 0.0, "cmpnntGmId": 5.0, "district": "LANDMARK", "owtype": "Seis2DLine", "project": "NEOGENO_FOZAMAZONAS", "ss2dUqLnId": "BA-134545", "ssGmStId": 454, "ssGmStNm": "BA-134545", "subprj": "ALL_DATA"}, "geometry": {"type": "LineString", "coordinates": [[-48.80868, 3.17825], [-48.66329, 3.31302], [-48.66133, 3.3119], [-48.65658, 3.31623], [-48.56146, 3.40573], [-48.52243, 3.43873], [-48.4639, 3.49661]]}}, {"type": "Feature", "properties": {"FONTE_CAMADA": "Sísmica 2D pública — ANP (Disponíveis)", "Interpret": "Nao iniciada", "OBJECTID": 239.0, "Shape_Leng": 0.0, "cmpnntGmId": 5.0, "district": "LANDMARK", "owtype": "Seis2DLine", "project": "NEOGENO_FOZAMAZONAS", "ss2dUqLnId": "BA-135401", "ssGmStId": 455, "ssGmStNm": "BA-135401", "subprj": "ALL_DATA"}, "geometry": {"type": "LineString", "coordinates": [[-48.49744, 3.52898], [-48.67403, 3.36622]]}}, {"type": "Feature", "properties": {"FONTE_CAMADA": "Sísmica 2D pública — ANP (Disponíveis)", "Interpret": "Nao iniciada", "OBJECTID": 240.0, "Shape_Leng": 0.0, "cmpnntGmId": 5.0, "district": "LANDMARK", "owtype": "Seis2DLine", "project": "NEOGENO_FOZAMAZONAS", "ss2dUqLnId": "BA-136201A", "ssGmStId": 456, "ssGmStNm": "BA-136201A", "subprj": "ALL_DATA"}, "geometry": {"type": "LineString", "coordinates": [[-48.72732, 3.38067], [-48.53043, 3.56082]]}}, {"type": "Feature", "properties": {"FONTE_CAMADA": "Sísmica 2D pública — ANP (Disponíveis)", "Interpret": "Nao iniciada", "OBJECTID": 254.0, "Shape_Leng": 0.0, "cmpnntGmId": 5.0, "district": "LANDMARK", "owtype": "Seis2DLine", "project": "NEOGENO_FOZAMAZONAS", "ss2dUqLnId": "RC1509", "ssGmStId": 470, "ssGmStNm": "RC1509", "subprj": "ALL_DATA"}, "geometry": {"type": "LineString", "coordinates": [[-47.00809, 2.09158], [-47.1699, 1.966], [-47.25481, 1.88374], [-47.3316, 1.8041], [-47.3573, 1.7723], [-47.4422, 1.6496], [-47.406, 1.8057], [-47.38845, 2.04844], [-47.38423, 2.09857], [-47.38073, 2.13998], [-47.37779, 2.17486], [-47.37522, 2.20538], [-47.37311, 2.23044], [-47.37127, 2.25223], [-47.36971, 2.27076], [-47.36842, 2.28601], [-47.36732, 2.29909], [-47.3664, 2.30998], [-47.36567, 2.3187], [-47.36502, 2.32633], [-47.36447, 2.33286], [-47.36401, 2.33831], [-47.362, 2.3608], [-47.4175, 2.4137], [-47.41694, 2.42091], [-47.41647, 2.42722], [-47.41598, 2.43352], [-47.4155, 2.43983], [-47.41501, 2.44614], [-47.4146, 2.45155], [-47.41255, 2.48193]]}}, {"type": "Feature", "properties": {"FONTE_CAMADA": "Sísmica 2D pública — ANP (Disponíveis)", "Interpret": "Nao iniciada", "OBJECTID": 256.0, "Shape_Leng": 0.0, "cmpnntGmId": 5.0, "district": "LANDMARK", "owtype": "Seis2DLine", "project": "NEOGENO_FOZAMAZONAS", "ss2dUqLnId": "RC1612", "ssGmStId": 472, "ssGmStNm": "RC1612", "subprj": "ALL_DATA"}, "geometry": {"type": "LineString", "coordinates": [[-47.06226, 0.69881], [-47.1266, 0.7295], [-47.3464, 0.8602], [-47.51027, 0.95089], [-47.5764, 0.9838], [-47.65901, 1.12426], [-47.82884, 1.37367], [-47.8632, 1.4261], [-48.06316, 1.84559], [-48.2249, 2.2292], [-48.25354, 2.28944], [-48.455, 2.6619], [-48.5998, 2.9123], [-48.6274, 2.9774], [-48.6363, 3.1127], [-48.6152, 3.16], [-48.4352, 3.272], [-48.3679, 3.2065], [-48.3018, 3.1305], [-48.3433, 3.2524], [-48.4059, 3.4131], [-48.432, 3.4106], [-48.48951, 3.52132]]}}, {"type": "Feature", "properties": {"FONTE_CAMADA": "Sísmica 2D pública — ANP (Disponíveis)", "Interpret": "Nao iniciada", "OBJECTID": 259.0, "Shape_Leng": 0.0, "cmpnntGmId": 5.0, "district": "LANDMARK", "owtype": "Seis2DLine", "project": "NEOGENO_FOZAMAZONAS", "ss2dUqLnId": "V2502_1", "ssGmStId": 475, "ssGmStNm": "V2502_1", "subprj": "ALL_DATA"}, "geometry": {"type": "LineString", "coordinates": [[-46.58308, 1.6814], [-46.58498, 1.67968], [-46.58968, 1.67545], [-46.59437, 1.67121], [-46.59813, 1.66782], [-46.60188, 1.66442], [-46.60564, 1.66103], [-46.6094, 1.65764], [-46.61316, 1.65425], [-46.61691, 1.65086], [-46.62067, 1.64746], [-46.62443, 1.64407], [-46.62724, 1.64153], [-46.63006, 1.63899], [-46.63288, 1.63644], [-46.6357, 1.6339], [-46.63852, 1.63136], [-46.64134, 1.62881], [-46.64415, 1.62627], [-46.64697, 1.62373], [-46.64979, 1.62119], [-46.65246, 1.61878], [-46.65561, 1.61595], [-46.65876, 1.61312], [-46.6871, 1.5881], [-46.8343, 1.5032], [-46.894, 1.451], [-47.0742, 1.2619], [-47.0769, 1.25921], [-47.07962, 1.25653], [-47.08193, 1.25423], [-47.08425, 1.25194], [-47.08657, 1.24963], [-47.0889, 1.24733], [-47.09121, 1.24504], [-47.09353, 1.24273], [-47.09585, 1.24043], [-47.09818, 1.23813], [-47.10049, 1.23583], [-47.10281, 1.23354], [-47.10513, 1.23123], [-47.10746, 1.22893], [-47.10939, 1.22702], [-47.11132, 1.2251], [-47.11325, 1.22318], [-47.11518, 1.22127], [-47.11712, 1.21935], [-47.11905, 1.21743], [-47.12098, 1.21552], [-47.12292, 1.2136], [-47.12485, 1.21168], [-47.12679, 1.20977], [-47.12872, 1.20785], [-47.13065, 1.20593], [-47.13258, 1.20401], [-47.13451, 1.2021], [-47.13645, 1.20018], [-47.138, 1.19864], [-47.13954, 1.19712], [-47.14109, 1.19558], [-47.14263, 1.19405], [-47.14418, 1.19251], [-47.14573, 1.19099], [-47.14728, 1.18945], [-47.14882, 1.18791], [-47.15037, 1.18638], [-47.15191, 1.18485], [-47.15346, 1.18332], [-47.15501, 1.18178], [-47.15656, 1.18024], [-47.1581, 1.17872], [-47.15965, 1.17718], [-47.16119, 1.17565], [-47.16274, 1.17411], [-47.16429, 1.17259], [-47.16545, 1.17143], [-47.16661, 1.17028], [-47.16777, 1.16913], [-47.16893, 1.16798], [-47.17009, 1.16684], [-47.17125, 1.16568], [-47.1724, 1.16453], [-47.17357, 1.16338], [-47.17473, 1.16223], [-47.17589, 1.16108], [-47.17705, 1.15993], [-47.17821, 1.15878], [-47.17937, 1.15763], [-47.18052, 1.15648], [-47.18168, 1.15533], [-47.18285, 1.15418], [-47.18401, 1.15303], [-47.18517, 1.15188], [-47.18633, 1.15073], [-47.18759, 1.14947], [-47.18953, 1.14753], [-47.19148, 1.14559], [-47.19343, 1.14365], [-47.1949, 1.14219], [-47.19635, 1.14073], [-47.19782, 1.13928], [-47.19928, 1.13782], [-47.20075, 1.13636], [-47.2022, 1.13491], [-47.20367, 1.13344], [-47.20513, 1.13199], [-47.20658, 1.13053], [-47.20805, 1.12908], [-47.20951, 1.12762], [-47.21098, 1.12616], [-47.2924, 1.0443], [-47.4035, 0.9887], [-47.78773, 1.34096], [-48.17385, 1.73734], [-48.58648, 2.13656], [-48.842, 2.3769], [-49.0114, 2.5907], [-49.0618, 2.763], [-49.07451, 2.79538], [-49.08668, 2.82642], [-49.09832, 2.85611], [-49.10891, 2.8831], [-49.11896, 2.90873], [-49.12849, 2.93302], [-49.13749, 2.95596], [-49.14596, 2.97754], [-49.1539, 2.99778], [-49.16131, 3.01667], [-49.2068, 3.13336]]}}, {"type": "Feature", "properties": {"FONTE_CAMADA": "Sísmica 2D pública — ANP (Disponíveis)", "Interpret": "Nao iniciada", "OBJECTID": 261.0, "Shape_Leng": 0.0, "cmpnntGmId": 5.0, "district": "LANDMARK", "owtype": "Seis2DLine", "project": "NEOGENO_FOZAMAZONAS", "ss2dUqLnId": "V2607", "ssGmStId": 477, "ssGmStNm": "V2607", "subprj": "ALL_DATA"}, "geometry": {"type": "LineString", "coordinates": [[-46.41958, 1.5236], [-46.4702, 1.5402], [-46.50041, 1.54311], [-46.52884, 1.54584], [-46.8082, 1.573], [-46.8341, 1.6535], [-46.873, 1.8222], [-46.88801, 1.97569]]}}, {"type": "Feature", "properties": {"FONTE_CAMADA": "Sísmica 2D pública — ANP (Disponíveis)", "Interpret": "Nao iniciada", "OBJECTID": 265.0, "Shape_Leng": 0.0, "cmpnntGmId": 5.0, "district": "LANDMARK", "owtype": "Seis2DLine", "project": "NEOGENO_FOZAMAZONAS", "ss2dUqLnId": "V3106_2", "ssGmStId": 481, "ssGmStNm": "V3106_2", "subprj": "ALL_DATA"}, "geometry": {"type": "LineString", "coordinates": [[-48.59917, 3.62716], [-48.71299, 3.44623], [-48.7632, 3.3623], [-48.6656, 3.1937], [-48.5177, 3.136], [-48.4735, 3.1241], [-48.35054, 3.0871], [-48.33607, 3.0827], [-48.31873, 3.07743], [-48.11156, 3.0137], [-47.88337, 2.93633]]}}, {"type": "Feature", "properties": {"FONTE_CAMADA": "Sísmica 2D pública — ANP (Disponíveis)", "Interpret": "Nao iniciada", "OBJECTID": 266.0, "Shape_Leng": 0.0, "cmpnntGmId": 5.0, "district": "LANDMARK", "owtype": "Seis2DLine", "project": "NEOGENO_FOZAMAZONAS", "ss2dUqLnId": "WI343418_1_2", "ssGmStId": 482, "ssGmStNm": "WI343418_1_2", "subprj": "ALL_DATA"}, "geometry": {"type": "LineString", "coordinates": [[-46.7487, 1.84124], [-46.77682, 1.71773], [-46.835, 1.51166]]}}, {"type": "Feature", "properties": {"FONTE_CAMADA": "Sísmica 2D pública — ANP (Disponíveis)", "Interpret": "Nao iniciada", "OBJECTID": 267.0, "Shape_Leng": 0.0, "cmpnntGmId": 5.0, "district": "LANDMARK", "owtype": "Seis2DLine", "project": "NEOGENO_FOZAMAZONAS", "ss2dUqLnId": "WI343418_2_2", "ssGmStId": 483, "ssGmStNm": "WI343418_2_2", "subprj": "ALL_DATA"}, "geometry": {"type": "LineString", "coordinates": [[-47.19667, 1.52833], [-47.19685, 1.53139], [-47.19703, 1.53447], [-47.1972, 1.53753], [-47.19738, 1.5406], [-47.19756, 1.54367], [-47.19774, 1.54674], [-47.1979, 1.5495], [-47.19805, 1.55227], [-47.19821, 1.55502], [-47.23335, 2.27041], [-47.23585, 2.3114]]}}, {"type": "Feature", "properties": {"FONTE_CAMADA": "Sísmica LEPLAC (Disponíveis)", "Interpret": null, "OBJECTID": 21.0, "Shape_Leng": 0.0, "cmpnntGmId": 4.0, "district": "LANDMARK", "owtype": "Seis2DLine", "project": "NEOGENO_FOZAMAZONAS", "ss2dUqLnId": "P0193-E0239-L0122-STACK", "ssGmStId": 233, "ssGmStNm": "P0193-E0239-L0122-STACK", "subprj": "ALL_DATA"}, "geometry": {"type": "LineString", "coordinates": [[-49.62985, 2.66622], [-49.54981, 2.73842], [-49.0494, 3.18914], [-49.00559, 3.22678], [-48.98211, 3.25063], [-48.95256, 3.27657], [-48.91509, 3.31009], [-48.82024, 3.39547], [-48.81156, 3.40164], [-48.78201, 3.4363], [-48.76914, 3.44776]]}}, {"type": "Feature", "properties": {"FONTE_CAMADA": "Sísmica LEPLAC (Disponíveis)", "Interpret": null, "OBJECTID": 22.0, "Shape_Leng": 0.0, "cmpnntGmId": 4.0, "district": "LANDMARK", "owtype": "Seis2DLine", "project": "NEOGENO_FOZAMAZONAS", "ss2dUqLnId": "P0193-E0239-L01222-MTVFL", "ssGmStId": 234, "ssGmStNm": "P0193-E0239-L01222-MTVFL", "subprj": "ALL_DATA"}, "geometry": {"type": "LineString", "coordinates": [[-48.80383, 3.40904], [-48.58098, 3.6096]]}}, {"type": "Feature", "properties": {"FONTE_CAMADA": "Sísmica LEPLAC (Disponíveis)", "Interpret": null, "OBJECTID": 39.0, "Shape_Leng": 0.0, "cmpnntGmId": 4.0, "district": "LANDMARK", "owtype": "Seis2DLine", "project": "NEOGENO_FOZAMAZONAS", "ss2dUqLnId": "P0521-E0501-L0021-MTVFL", "ssGmStId": 251, "ssGmStNm": "P0521-E0501-L0021-MTVFL", "subprj": "ALL_DATA"}, "geometry": {"type": "LineString", "coordinates": [[-47.05312, 1.51696], [-46.99297, 1.59862], [-46.98209, 1.61866], [-46.97391, 1.62654], [-46.90624, 1.7546], [-46.89427, 1.76355], [-46.87989, 1.77386], [-46.85233, 1.80237], [-46.84648, 1.81277], [-46.83296, 1.84814], [-46.82694, 1.85627], [-46.79883, 1.88933], [-46.79865, 1.88945]]}}, {"type": "Feature", "properties": {"FONTE_CAMADA": "Sísmica LEPLAC (Disponíveis)", "Interpret": null, "OBJECTID": 41.0, "Shape_Leng": 0.0, "cmpnntGmId": 4.0, "district": "LANDMARK", "owtype": "Seis2DLine", "project": "NEOGENO_FOZAMAZONAS", "ss2dUqLnId": "P0521-E0501-L0022-MTVFL", "ssGmStId": 253, "ssGmStNm": "P0521-E0501-L0022-MTVFL", "subprj": "ALL_DATA"}, "geometry": {"type": "LineString", "coordinates": [[-47.5428, 2.31393], [-47.51729, 2.34973], [-47.50049, 2.37666], [-47.49507, 2.38261], [-47.47201, 2.40157], [-47.46903, 2.40599], [-47.43498, 2.43962], [-47.42937, 2.4489], [-47.418, 2.4649], [-47.40663, 2.47622]]}}, {"type": "Feature", "properties": {"FONTE_CAMADA": "Sísmica LEPLAC (Disponíveis)", "Interpret": null, "OBJECTID": 43.0, "Shape_Leng": 0.0, "cmpnntGmId": 4.0, "district": "LANDMARK", "owtype": "Seis2DLine", "project": "NEOGENO_FOZAMAZONAS", "ss2dUqLnId": "P0521-E0501-L0022B-MTVFL", "ssGmStId": 255, "ssGmStNm": "P0521-E0501-L0022B-MTVFL", "subprj": "ALL_DATA"}, "geometry": {"type": "LineString", "coordinates": [[-47.51646, 2.33297], [-47.54709, 2.30307], [-47.55588, 2.28456], [-47.56853, 2.26795], [-47.57225, 2.25999], [-47.58662, 2.24015], [-47.60201, 2.22202], [-47.63797, 2.16764]]}}, {"type": "Feature", "properties": {"FONTE_CAMADA": "Sísmica LEPLAC (Disponíveis)", "Interpret": null, "OBJECTID": 46.0, "Shape_Leng": 0.0, "cmpnntGmId": 4.0, "district": "LANDMARK", "owtype": "Seis2DLine", "project": "NEOGENO_FOZAMAZONAS", "ss2dUqLnId": "P0521-E0501-L0023B-MTVFL", "ssGmStId": 258, "ssGmStNm": "P0521-E0501-L0023B-MTVFL", "subprj": "ALL_DATA"}, "geometry": {"type": "LineString", "coordinates": [[-48.10822, 3.15334], [-48.13451, 3.117], [-48.14945, 3.09551], [-48.16654, 3.06775], [-48.18045, 3.03841], [-48.18367, 3.02589], [-48.20454, 2.98026], [-48.2264, 2.96262], [-48.25285, 2.94974], [-48.25537, 2.94674], [-48.26538, 2.92965], [-48.30345, 2.87626], [-48.31579, 2.85239], [-48.32834, 2.81786], [-48.36198, 2.76931]]}}, {"type": "Feature", "properties": {"FONTE_CAMADA": "Sísmica LEPLAC (Disponíveis)", "Interpret": null, "OBJECTID": 61.0, "Shape_Leng": 0.0, "cmpnntGmId": 4.0, "district": "LANDMARK", "owtype": "Seis2DLine", "project": "NEOGENO_FOZAMAZONAS", "ss2dUqLnId": "P0523-E0500-L0535-MTVFL", "ssGmStId": 273, "ssGmStNm": "P0523-E0500-L0535-MTVFL", "subprj": "ALL_DATA"}, "geometry": {"type": "LineString", "coordinates": [[-48.04926, 2.42299], [-48.03973, 2.43349], [-48.0327, 2.44255], [-47.98294, 2.50942], [-47.95069, 2.54954], [-47.94225, 2.56182], [-47.91246, 2.59816], [-47.89783, 2.61742], [-47.89309, 2.62605], [-47.88116, 2.64174], [-47.86974, 2.655], [-47.86463, 2.66263], [-47.86063, 2.66467], [-47.8491, 2.68276], [-47.84145, 2.69084], [-47.80504, 2.73889], [-47.79673, 2.75343], [-47.7986, 2.77033], [-47.79455, 2.77903], [-47.78007, 2.78407], [-47.7746, 2.78829], [-47.75322, 2.80202], [-47.74912, 2.80676]]}}, {"type": "Feature", "properties": {"FONTE_CAMADA": "Sísmica LEPLAC (Disponíveis)", "Interpret": null, "OBJECTID": 63.0, "Shape_Leng": 0.0, "cmpnntGmId": 4.0, "district": "LANDMARK", "owtype": "Seis2DLine", "project": "NEOGENO_FOZAMAZONAS", "ss2dUqLnId": "206forta-s17_2_stack_rel", "ssGmStId": 330, "ssGmStNm": "206forta-s17_2_stack_rel", "subprj": "ALL_DATA"}, "geometry": {"type": "LineString", "coordinates": [[-46.38796, 1.27885], [-46.69158, 1.78611]]}}, {"type": "Feature", "properties": {"FONTE_CAMADA": "Sísmica LEPLAC (Disponíveis)", "Interpret": null, "OBJECTID": 67.0, "Shape_Leng": 0.0, "cmpnntGmId": 4.0, "district": "LANDMARK", "owtype": "Seis2DLine", "project": "NEOGENO_FOZAMAZONAS", "ss2dUqLnId": "224b3_2-belem_stack_rel", "ssGmStId": 337, "ssGmStNm": "224b3_2-belem_stack_rel", "subprj": "ALL_DATA"}, "geometry": {"type": "LineString", "coordinates": [[-48.59581, 3.23965], [-48.41762, 2.67507], [-48.40048, 2.61412], [-48.3812, 2.55956], [-47.83528, 0.82678]]}}, {"type": "Feature", "properties": {"FONTE_CAMADA": "Sísmica LEPLAC (Disponíveis)", "Interpret": null, "OBJECTID": 72.0, "Shape_Leng": 0.0, "cmpnntGmId": 4.0, "district": "LANDMARK", "owtype": "Seis2DLine", "project": "NEOGENO_FOZAMAZONAS", "ss2dUqLnId": "232b3_2_stack_rel", "ssGmStId": 342, "ssGmStNm": "232b3_2_stack_rel", "subprj": "ALL_DATA"}, "geometry": {"type": "LineString", "coordinates": [[-48.47724, 3.50948], [-48.61117, 3.27809]]}}, {"type": "Feature", "properties": {"FONTE_CAMADA": "Sísmica LEPLAC (Disponíveis)", "Interpret": null, "OBJECTID": 73.0, "Shape_Leng": 0.0, "cmpnntGmId": 4.0, "district": "LANDMARK", "owtype": "Seis2DLine", "project": "NEOGENO_FOZAMAZONAS", "ss2dUqLnId": "387s14-b3_6_stack_rel", "ssGmStId": 373, "ssGmStNm": "387s14-b3_6_stack_rel", "subprj": "ALL_DATA"}, "geometry": {"type": "LineString", "coordinates": [[-48.97813, 3.33272], [-48.27252, 2.9065]]}}, {"type": "Feature", "properties": {"FONTE_CAMADA": "Sísmica LEPLAC (Disponíveis)", "Interpret": null, "OBJECTID": 74.0, "Shape_Leng": 0.0, "cmpnntGmId": 4.0, "district": "LANDMARK", "owtype": "Seis2DLine", "project": "NEOGENO_FOZAMAZONAS", "ss2dUqLnId": "388b3_6_stack_rel", "ssGmStId": 374, "ssGmStNm": "388b3_6_stack_rel", "subprj": "ALL_DATA"}, "geometry": {"type": "LineString", "coordinates": [[-48.21926, 2.89788], [-47.96836, 3.01836]]}}, {"type": "Feature", "properties": {"FONTE_CAMADA": "Sísmica LEPLAC (Disponíveis)", "Interpret": null, "OBJECTID": 77.0, "Shape_Leng": 0.0, "cmpnntGmId": 4.0, "district": "LANDMARK", "owtype": "Seis2DLine", "project": "NEOGENO_FOZAMAZONAS", "ss2dUqLnId": "391b3_7_stack_rel", "ssGmStId": 377, "ssGmStNm": "391b3_7_stack_rel", "subprj": "ALL_DATA"}, "geometry": {"type": "LineString", "coordinates": [[-47.74295, 2.80081], [-47.88674, 2.7587]]}}, {"type": "Feature", "properties": {"FONTE_CAMADA": "Sísmica LEPLAC (Disponíveis)", "Interpret": null, "OBJECTID": 78.0, "Shape_Leng": 0.0, "cmpnntGmId": 4.0, "district": "LANDMARK", "owtype": "Seis2DLine", "project": "NEOGENO_FOZAMAZONAS", "ss2dUqLnId": "392b3_7-b3_8_stack_rel", "ssGmStId": 378, "ssGmStNm": "392b3_7-b3_8_stack_rel", "subprj": "ALL_DATA"}, "geometry": {"type": "LineString", "coordinates": [[-47.89196, 2.73246], [-47.79772, 2.5632]]}}, {"type": "Feature", "properties": {"FONTE_CAMADA": "Sísmica LEPLAC (Disponíveis)", "Interpret": null, "OBJECTID": 79.0, "Shape_Leng": 0.0, "cmpnntGmId": 4.0, "district": "LANDMARK", "owtype": "Seis2DLine", "project": "NEOGENO_FOZAMAZONAS", "ss2dUqLnId": "393b3_8_stack_rel", "ssGmStId": 379, "ssGmStNm": "393b3_8_stack_rel", "subprj": "ALL_DATA"}, "geometry": {"type": "LineString", "coordinates": [[-47.76962, 2.55068], [-47.52475, 2.59022]]}}, {"type": "Feature", "properties": {"FONTE_CAMADA": "Sísmica LEPLAC (Disponíveis)", "Interpret": null, "OBJECTID": 81.0, "Shape_Leng": 0.0, "cmpnntGmId": 4.0, "district": "LANDMARK", "owtype": "Seis2DLine", "project": "NEOGENO_FOZAMAZONAS", "ss2dUqLnId": "395b3_9_stack_rel", "ssGmStId": 381, "ssGmStNm": "395b3_9_stack_rel", "subprj": "ALL_DATA"}, "geometry": {"type": "LineString", "coordinates": [[-47.19748, 2.27437], [-47.69208, 2.20221]]}}, {"type": "Feature", "properties": {"FONTE_CAMADA": "Sísmica LEPLAC (Disponíveis)", "Interpret": null, "OBJECTID": 118.0, "Shape_Leng": 0.0, "cmpnntGmId": 4.0, "district": "LANDMARK", "owtype": "Seis2DLine", "project": "NEOGENO_FOZAMAZONAS", "ss2dUqLnId": "b24_stack_rel", "ssGmStId": 438, "ssGmStNm": "b24_stack_rel", "subprj": "ALL_DATA"}, "geometry": {"type": "LineString", "coordinates": [[-46.44956, 1.22586], [-46.63295, 1.16792]]}}, {"type": "Feature", "properties": {"FONTE_CAMADA": "Sísmica LEPLAC (Disponíveis)", "Interpret": null, "OBJECTID": 125.0, "Shape_Leng": 0.0, "cmpnntGmId": 4.0, "district": "LANDMARK", "owtype": "Seis2DLine", "project": "NEOGENO_FOZAMAZONAS", "ss2dUqLnId": "251s14_b3_3_stack_rel", "ssGmStId": 357, "ssGmStNm": "251s14_b3_3_stack_rel", "subprj": "ALL_DATA"}, "geometry": {"type": "LineString", "coordinates": [[-48.41034, 3.44492], [-48.35872, 3.05369]]}}, {"type": "Feature", "properties": {"FONTE_CAMADA": "Sísmica LEPLAC (Disponíveis)", "Interpret": null, "OBJECTID": 127.0, "Shape_Leng": 0.0, "cmpnntGmId": 4.0, "district": "LANDMARK", "owtype": "Seis2DLine", "project": "NEOGENO_FOZAMAZONAS", "ss2dUqLnId": "252_b3_3_stack_rel", "ssGmStId": 358, "ssGmStNm": "252_b3_3_stack_rel", "subprj": "ALL_DATA"}, "geometry": {"type": "LineString", "coordinates": [[-48.35697, 3.0246], [-48.20919, 3.25078]]}}, {"type": "Feature", "properties": {"FONTE_CAMADA": "Sísmica LEPLAC (Disponíveis)", "Interpret": null, "OBJECTID": 131.0, "Shape_Leng": 0.0, "cmpnntGmId": 4.0, "district": "LANDMARK", "owtype": "Seis2DLine", "project": "NEOGENO_FOZAMAZONAS", "ss2dUqLnId": "254b3_4a_stack_rel", "ssGmStId": 363, "ssGmStNm": "254b3_4a_stack_rel", "subprj": "ALL_DATA"}, "geometry": {"type": "LineString", "coordinates": [[-48.6502, 3.61331], [-48.73176, 3.5475]]}}, {"type": "Feature", "properties": {"FONTE_CAMADA": "Sísmica LEPLAC (Disponíveis)", "Interpret": null, "OBJECTID": 132.0, "Shape_Leng": 0.0, "cmpnntGmId": 4.0, "district": "LANDMARK", "owtype": "Seis2DLine", "project": "NEOGENO_FOZAMAZONAS", "ss2dUqLnId": "255b4_stack_rel", "ssGmStId": 364, "ssGmStNm": "255b4_stack_rel", "subprj": "ALL_DATA"}, "geometry": {"type": "LineString", "coordinates": [[-48.79429, 3.46071], [-48.56595, 3.5951]]}}, {"type": "Feature", "properties": {"FONTE_CAMADA": "Sísmica LEPLAC (Disponíveis)", "Interpret": null, "OBJECTID": 137.0, "Shape_Leng": 0.0, "cmpnntGmId": 4.0, "district": "LANDMARK", "owtype": "Seis2DLine", "project": "NEOGENO_FOZAMAZONAS", "ss2dUqLnId": "258b3_5_stack_rel", "ssGmStId": 369, "ssGmStNm": "258b3_5_stack_rel", "subprj": "ALL_DATA"}, "geometry": {"type": "LineString", "coordinates": [[-48.24833, 3.28856], [-48.72123, 3.02199]]}}, {"type": "Feature", "properties": {"FONTE_CAMADA": "Sísmica LEPLAC (Disponíveis)", "Interpret": null, "OBJECTID": 138.0, "Shape_Leng": 0.0, "cmpnntGmId": 4.0, "district": "LANDMARK", "owtype": "Seis2DLine", "project": "NEOGENO_FOZAMAZONAS", "ss2dUqLnId": "259b3_5-b3_9_stack_rel", "ssGmStId": 370, "ssGmStNm": "259b3_5-b3_9_stack_rel", "subprj": "ALL_DATA"}, "geometry": {"type": "LineString", "coordinates": [[-48.68563, 3.00008], [-48.67793, 2.99683], [-48.66015, 2.98444], [-48.3121, 2.70532]]}}, {"type": "Feature", "properties": {"FONTE_CAMADA": "Sísmica LEPLAC (Disponíveis)", "Interpret": null, "OBJECTID": 139.0, "Shape_Leng": 0.0, "cmpnntGmId": 4.0, "district": "LANDMARK", "owtype": "Seis2DLine", "project": "NEOGENO_FOZAMAZONAS", "ss2dUqLnId": "260b3_5-b3_9b_stack_rel", "ssGmStId": 371, "ssGmStNm": "260b3_5-b3_9b_stack_rel", "subprj": "ALL_DATA"}, "geometry": {"type": "LineString", "coordinates": [[-48.28533, 2.68397], [-48.2624, 2.66932], [-48.23362, 2.65341]]}}, {"type": "Feature", "properties": {"FONTE_CAMADA": "Sísmica LEPLAC (Disponíveis)", "Interpret": null, "OBJECTID": 184.0, "Shape_Leng": 0.0, "cmpnntGmId": 4.0, "district": "LANDMARK", "owtype": "Seis2DLine", "project": "NEOGENO_FOZAMAZONAS", "ss2dUqLnId": "seq378_s1-s10_pstm_rel", "ssGmStId": 506, "ssGmStNm": "seq378_s1-s10_pstm_rel", "subprj": "ALL_DATA"}, "geometry": {"type": "LineString", "coordinates": [[-46.53848, 1.63836], [-47.07393, 1.6885], [-47.08014, 1.68744], [-47.12877, 1.66616]]}}, {"type": "Feature", "properties": {"FONTE_CAMADA": "Sísmica LEPLAC (Disponíveis)", "Interpret": null, "OBJECTID": 185.0, "Shape_Leng": 0.0, "cmpnntGmId": 4.0, "district": "LANDMARK", "owtype": "Seis2DLine", "project": "NEOGENO_FOZAMAZONAS", "ss2dUqLnId": "seq379_s10_rev2_pstm_rel", "ssGmStId": 507, "ssGmStNm": "seq379_s10_rev2_pstm_rel", "subprj": "ALL_DATA"}, "geometry": {"type": "LineString", "coordinates": [[-47.40868, 1.76905], [-47.33008, 1.87281], [-47.30649, 1.94086], [-47.29225, 1.96631], [-47.28255, 1.97688], [-47.26885, 1.98858], [-47.2167, 2.02207], [-47.09767, 2.17804]]}}]}